,Longest_Hole_Outs_in_yards_RANK THIS WEEK,Longest_Hole_Outs_in_yards_RANK LAST WEEK,Longest_Hole_Outs_in_yards_PLAYER NAME,Longest_Hole_Outs_in_yards_ROUNDS,Longest_Hole_Outs_in_yards_DISTANCE,Longest_Hole_Outs_in_yards_TOURNAMENT,Longest_Hole_Outs_in_yards_ROUND- COURSE,Longest_Hole_Outs_in_yards_HOLE
0,1,1,Kenny Perry,98,319,Phoenix Open,2,17
1,2,2,Bob Estes,93,225,FedEx St. Jude Classic,3,14
2,3,3,Larry Mize,22,223,Buick Classic,1,16
3,4,4,Tim Petrovic,92,221,The Honda Classic,1,16
4,5,5,Jesper Parnevik,85,219,BellSouth Classic,2,8
5,6,6,Robert Allenby,96,206,SEI Pennsylvania Classic,3,17
6,7,7,Steve Lowery,98,205,Bob Hope Chrysler Classic,3,13
7,8,8,Jerry Kelly,99,204,THE TOUR Championship presented by Coca-Cola,4,11
8,9,6,Robert Allenby,96,201,THE TOUR Championship presented by Coca-Cola,3,17
9,10,3,Larry Mize,22,189,Greater Milwaukee Open,2,11
10,11,11,Craig Stadler,72,186,THE PLAYERS Championship,3,13
11,T12,12,Kaname Yokoo,74,182,Southern Farm Bureau Classic,1,14
12,T12,13,J.L. Lewis,98,182,Valero Texas Open,4,17
13,T14,14,Corey Pavin,78,181,MasterCard Colonial,1,13
14,T14,15,Ernie Els,68,181,Verizon Byron Nelson Classic,4,13
15,T16,16,Mike Hulbert,55,178,FedEx St. Jude Classic,1,18
16,T16,17,Joey Sindelar,104,178,THE PLAYERS Championship,2,9
17,18,18,Jeff Maggert,83,177,Compaq Classic of New Orleans,2,17
18,19,19,Rod Pampling,98,173,SEI Pennsylvania Classic,1,10
19,T20,20,Carlos Franco,107,169,Bell Canadian Open,1,18
20,T20,21,Graeme McDowell,12,169,World Golf Championships-NEC Invitational,1,12
21,22,22,Tom Byrum,77,168,Reno-Tahoe Open,2,16
22,T23,23,Davis Love III,92,163,Disney Golf Classic,4,12
23,T23,24,Per-Ulrik Johansson,87,163,Southern Farm Bureau Classic,2,15
24,T25,22,Tom Byrum,77,161,SEI Pennsylvania Classic,2,16
25,T25,26,Guy Boros,28,161,Michelob Championship at Kingsmill,1,12
26,T25,27,Shaun Micheel,100,161,B.C. Open,2,17
27,28,28,Tommy Tolles,64,151,Reno-Tahoe Open,2,15
28,T29,29,Mike Sposa,111,150,Phoenix Open,2,16
29,T29,30,Joe Ogilvie,50,150,Greater Milwaukee Open,1,13
30,31,31,David Duval,78,149,Buick Challenge,2,14
31,32,20,Carlos Franco,107,146,THE PLAYERS Championship,3,18
32,33,33,Brian Henninger,66,144,Sony Open in Hawaii,2,16
33,34,34,Hank Kuehne,19,142,John Deere Classic,2,11
34,35,35,David Peoples,105,140,SEI Pennsylvania Classic,4,11
35,36,36,Brian Bateman,94,139,FedEx St. Jude Classic,4,15
36,T37,37,Miguel Angel Jiménez,60,138,THE PLAYERS Championship,1,17
37,T37,38,Joel Edwards,101,138,Valero Texas Open,2,12
38,39,39,Sandy Lyle,25,136,Tampa Bay Classic presented by Buick,2,10
39,T40,40,Stuart Appleby,97,135,Buick Challenge,3,13
40,T40,41,Shigeki Maruyama,87,135,Touchstone Energy Tucson Open,4,16
41,42,42,Cameron Beckman,87,130,Buick Challenge,1,3
42,43,43,Phil Mickelson,97,129,World Golf Championships-American Express Championship,4,15
43,44,44,Andy Bean,12,125,B.C. Open,2,18
44,45,45,Woody Austin,102,121,Greater Milwaukee Open,2,12
45,46,46,Bo Van Pelt,78,120,BellSouth Classic,3,18
46,47,47,David Gossett,95,119,Disney Golf Classic,2,16
47,48,48,Joe Durant,87,117,Greater Milwaukee Open,1,18
48,49,49,"Jim Gallagher, Jr.",45,113,Buick Open,2,10
49,50,50,Charles Howell III,118,111,THE TOUR Championship presented by Coca-Cola,4,13
50,51,51,Matt Kuchar,82,109,Memorial Tournament,3,11
51,T52,52,Stephen Ames,89,107,Buick Open,4,13
52,T52,28,Tommy Tolles,64,107,Air Canada Championship,1,14
53,T52,54,Luke Donald,106,107,Greater Greensboro Chrysler Classic,3,16
54,55,55,John Rollins,124,106,Memorial Tournament,3,14
55,56,56,K.J. Choi,93,104,Touchstone Energy Tucson Open,3,15
56,57,36,Brian Bateman,94,102,Michelob Championship at Kingsmill,2,11
57,58,58,Robin Freeman,79,100,Southern Farm Bureau Classic,3,18
58,59,59,Brandt Jobe,94,99,BellSouth Classic,1,10
59,60,60,Tim Clark,76,97,Advil Western Open,4,10
60,T61,54,Luke Donald,106,96,Buick Open,1,12
61,T61,62,Michael Bradley,20,96,Tampa Bay Classic presented by Buick,4,11
62,63,63,Chad Campbell,111,95,The Honda Classic,2,13
63,64,64,Skip Kendall,103,93,Canon Greater Hartford Open,2,13
64,T65,65,Peter Jacobsen,67,90,Canon Greater Hartford Open,1,13
65,T65,55,John Rollins,124,90,B.C. Open,3,10
66,T65,67,Jonathan Kaye,83,90,Canon Greater Hartford Open,4,13
67,68,68,Brian Watts,58,89,Kemper Insurance Open,1,14
68,69,69,David Toms,106,88,THE PLAYERS Championship,3,12
69,70,7,Steve Lowery,98,86,Bay Hill Invitational presented by Cooper Tires,4,9
70,71,71,Rory Sabbatini,69,83,Canon Greater Hartford Open,2,18
71,T72,42,Cameron Beckman,87,82,Mercedes Championships,4,14
72,T72,73,Edward Fryatt,94,82,Shell Houston Open,2,6
73,T74,74,Chris DiMarco,111,81,Shell Houston Open,2,18
74,T74,75,Ronnie Black,28,81,SEI Pennsylvania Classic,2,12
75,T76,76,Jay Haas,83,80,Buick Open,4,12
76,T76,77,Fred Funk,106,80,THE TOUR Championship presented by Coca-Cola,1,10
77,78,78,Craig Perks,91,79,Buick Open,4,12
78,79,79,Jim McGovern,46,78,SEI Pennsylvania Classic,3,12
79,80,80,Iain Steel,4,77,Bell Canadian Open,2,16
80,81,81,Paul Gow,99,73,Southern Farm Bureau Classic,1,18
81,82,50,Charles Howell III,118,72,Bob Hope Chrysler Classic,2,11
82,T83,83,David Morland IV,58,65,B.C. Open,1,16
83,T83,84,Tom Scherrer,98,65,Sony Open in Hawaii,2,18
84,85,63,Chad Campbell,111,64,Bob Hope Chrysler Classic,2,11
85,86,86,Jeff Gallagher,37,61,Buick Open,1,14
86,T87,87,Dan Pohl,8,60,Valero Texas Open,1,14
87,T87,64,Skip Kendall,103,60,Phoenix Open,1,13
88,89,89,Steve Allan,93,59,Buick Open,3,14
89,90,76,Jay Haas,83,58,Buick Open,4,14
90,91,91,Russ Cochran,68,57,Buick Open,4,12
91,T92,92,Glen Hnatiuk,95,53,Advil Western Open,4,11
92,T92,54,Luke Donald,106,53,Buick Challenge,2,10
93,94,94,Jeff Brehaut,87,51,BellSouth Classic,2,10
94,T95,95,Stewart Cink,92,49,Bob Hope Chrysler Classic,4,15
95,T95,96,Kevin Sutherland,96,49,Air Canada Championship,2,13
96,97,97,Mark Brooks,97,46,Advil Western Open,1,18
97,98,98,Brad Elder,76,43,SEI Pennsylvania Classic,2,15
98,99,19,Rod Pampling,98,40,Bob Hope Chrysler Classic,4,6
99,100,100,Jim Furyk,88,39,Phoenix Open,1,13
100,T101,35,David Peoples,105,37,Sony Open in Hawaii,2,18
101,T101,102,Greg Kraft,86,37,Bob Hope Chrysler Classic,3,18
102,103,103,Sean Murphy,6,36,FedEx St. Jude Classic,2,17
103,104,104,Lucas Glover,17,35,John Deere Classic,3,14
104,105,105,Fulton Allem,64,34,Genuity Championship,1,13
105,T106,106,Bernhard Langer,55,33,World Golf Championships-American Express Championship,4,16
106,T106,107,Hal Sutton,74,33,FedEx St. Jude Classic,1,16
107,T106,108,Retief Goosen,56,33,BellSouth Classic,4,4
108,T106,109,Jason Hill,59,33,B.C. Open,1,16
109,T110,110,Sergio Garcia,79,32,World Golf Championships-American Express Championship,4,17
110,T110,27,Shaun Micheel,100,32,Disney Golf Classic,1,10
111,T110,112,Michael Clark II,97,32,Air Canada Championship,4,13
112,T110,108,Retief Goosen,56,32,BellSouth Classic,2,13
113,T110,114,Derek Gillespie,6,32,Bell Canadian Open,1,16
114,T110,64,Skip Kendall,103,32,BellSouth Classic,3,18
115,T116,116,Steve Elkington,82,31,Kemper Insurance Open,2,14
116,T116,117,Jay Don Blake,107,31,Reno-Tahoe Open,1,15
117,T118,119,Tim Herron,102,30,SEI Pennsylvania Classic,2,16
118,T118,47,David Gossett,95,30,John Deere Classic,3,10
119,T118,120,Bob Heintz,68,30,B.C. Open,1,16
120,T118,60,Tim Clark,76,30,Michelob Championship at Kingsmill,1,13
121,T118,36,Brian Bateman,94,30,Reno-Tahoe Open,2,13
122,T123,95,Stewart Cink,92,29,Bob Hope Chrysler Classic,4,11
123,T123,12,Kaname Yokoo,74,29,Bay Hill Invitational presented by Cooper Tires,1,9
124,T123,125,Carl Paulson,84,29,FedEx St. Jude Classic,3,17
125,T126,126,Bob May,91,28,Buick Challenge,1,7
126,T126,18,Jeff Maggert,83,28,Shell Houston Open,2,17
127,T128,128,Adam Scott,32,27,THE PLAYERS Championship,2,15
128,T128,129,Hidemichi Tanaka,104,27,Canon Greater Hartford Open,2,15
129,T128,130,Keith Fergus,6,27,Bob Hope Chrysler Classic,4,18
130,T128,131,Erik Compton,14,27,Memorial Tournament,2,18
131,T128,98,Brad Elder,76,27,Sony Open in Hawaii,2,18
132,T133,133,Donnie Hammond,60,26,FedEx St. Jude Classic,3,13
133,T133,134,Kent Jones,105,26,Genuity Championship,2,13
134,T133,135,Ed Fiori,14,26,B.C. Open,1,14
135,T133,33,Brian Henninger,66,26,Reno-Tahoe Open,1,18
136,T133,137,Tommy Armour III,82,26,Bay Hill Invitational presented by Cooper Tires,1,15
137,T138,74,Chris DiMarco,111,25,Verizon Byron Nelson Classic,2,15
138,T138,139,Billy Mayfair,99,25,Memorial Tournament,1,18
139,T138,58,Robin Freeman,79,25,FedEx St. Jude Classic,1,17
140,T138,134,Kent Jones,105,25,Greater Greensboro Chrysler Classic,3,16
141,T138,142,Brad Faxon,93,25,Bay Hill Invitational presented by Cooper Tires,3,16
142,T138,35,David Peoples,105,25,Southern Farm Bureau Classic,1,16
143,T144,144,Pat Perez,89,24,Bell Canadian Open,4,12
144,T144,145,Neal Lancaster,101,24,Bell Canadian Open,1,12
145,T144,20,Carlos Franco,107,24,Kemper Insurance Open,2,18
146,T144,147,"David Berganio, Jr.",80,24,Southern Farm Bureau Classic,3,14
147,T144,148,Frank Lickliter II,94,24,Buick Challenge,3,15
148,T149,149,Robert Floyd,2,23,Valero Texas Open,2,17
149,T149,150,Pete Jordan,78,23,John Deere Classic,4,16
150,T149,151,John Cook,85,23,Sony Open in Hawaii,2,18
151,T149,4,Tim Petrovic,92,23,FedEx St. Jude Classic,2,13
152,T149,55,John Rollins,124,23,THE TOUR Championship presented by Coca-Cola,4,17
153,T149,13,J.L. Lewis,98,23,Bell Canadian Open,3,14
154,T155,155,Brett Quigley,93,22,The Honda Classic,2,13
155,T155,156,Willie Wood,44,22,SEI Pennsylvania Classic,1,15
156,T155,157,Tripp Isenhour,68,22,FedEx St. Jude Classic,3,14
157,T155,155,Brett Quigley,93,22,Greater Milwaukee Open,2,17
158,T155,159,Chris Tucker,2,22,Greater Greensboro Chrysler Classic,1,16
159,T155,160,Bob Burns,99,22,Buick Challenge,1,2
160,T155,161,Loren Roberts,93,22,Buick Classic,1,17
161,T162,162,Rich Beem,99,21,Valero Texas Open,1,14
162,T162,43,Phil Mickelson,97,21,Buick Challenge,1,11
163,T162,164,Geoff Ogilvy,90,21,Reno-Tahoe Open,4,17
164,T162,165,Robert Damron,85,21,Memorial Tournament,4,15
165,T162,166,Len Mattiace,106,21,THE TOUR Championship presented by Coca-Cola,2,3
166,T162,74,Chris DiMarco,111,21,Bob Hope Chrysler Classic,5,6
167,T162,168,Gary Nicklaus,66,21,Tampa Bay Classic presented by Buick,2,10
168,T162,169,Gene Sauers,33,21,Bell Canadian Open,3,17
169,T162,170,Heath Slocum,96,21,Greater Milwaukee Open,1,11
170,T162,110,Sergio Garcia,79,21,THE PLAYERS Championship,3,16
171,T162,172,Andrew Magee,91,21,Buick Challenge,1,11
172,T173,173,Scott Verplank,93,20,THE PLAYERS Championship,4,15
173,T173,174,John Huston,99,20,Compaq Classic of New Orleans,1,18
174,T173,28,Tommy Tolles,64,20,Southern Farm Bureau Classic,3,15
175,T173,176,JC Anderson,4,20,Verizon Byron Nelson Classic,2,13
176,T173,177,Ángel Cabrera,47,20,World Golf Championships-American Express Championship,3,13
177,T173,170,Heath Slocum,96,20,B.C. Open,4,14
178,T173,179,John Senden,96,20,FedEx St. Jude Classic,4,17
179,T173,164,Geoff Ogilvy,90,20,Buick Open,3,13
180,T173,181,Jeff Sluman,118,20,Greater Milwaukee Open,1,15
181,T173,182,Deane Pappas,90,20,Buick Open,1,17
182,T173,63,Chad Campbell,111,20,Buick Challenge,3,13
183,T173,49,"Jim Gallagher, Jr.",45,20,Michelob Championship at Kingsmill,2,15
184,T173,185,Phil Tataurangi,88,20,B.C. Open,2,14
185,T186,23,Davis Love III,92,19,Buick Challenge,1,11
186,T186,173,Scott Verplank,93,19,World Golf Championships-American Express Championship,4,14
187,T186,126,Bob May,91,19,FedEx St. Jude Classic,4,14
188,T186,22,Tom Byrum,77,19,Compaq Classic of New Orleans,2,16
189,T186,190,Tom Lehman,78,19,THE PLAYERS Championship,3,17
190,T186,191,Chris Riley,104,19,Invensys Classic at Las Vegas,5,11
191,T192,91,Russ Cochran,68,18,Buick Open,4,11
192,T192,193,Jay Delsing,18,18,Air Canada Championship,4,15
193,T192,137,Tommy Armour III,82,18,Advil Western Open,2,12
194,T192,195,Craig Parry,69,18,THE PLAYERS Championship,3,11
195,T192,196,Matt Peterson,80,18,Reno-Tahoe Open,1,18
196,T192,197,Kenneth Staton,104,18,Compaq Classic of New Orleans,2,14
197,T192,198,Vijay Singh,102,18,Shell Houston Open,2,16
198,T192,199,Brad Lardon,59,18,Compaq Classic of New Orleans,2,16
199,T192,200,Henrik Simonsen,2,18,Valero Texas Open,2,13
