,Longest_Putts_RANK THIS WEEK,Longest_Putts_RANK LAST WEEK,Longest_Putts_PLAYER NAME,Longest_Putts_ROUNDS,Longest_Putts_DISTANCE,Longest_Putts_YEAR/TOURN#,Longest_Putts_ROUND,Longest_Putts_HOLE
0,1,1,J.B. Holmes,90,"89' 11""",Waste Management Phoenix Open,4,8
1,2,2,Seung-Yul Noh,105,"85' 8""",HP Byron Nelson Championship,2,11
2,3,3,James Driscoll,83,"83' 8""",The Honda Classic,2,11
3,4,4,Scott Brown,65,"78' 6""",Wells Fargo Championship,2,18
4,5,5,Zach Johnson,95,"76' 10""",Wells Fargo Championship,1,17
5,6,6,Gus Ulrich,2,"76' 9""",Wyndham Championship,2,2
6,7,7,Padraig Harrington,67,"75' 0""",Transitions Championship,1,17
7,8,8,Billy Mayfair,90,"73' 0""",RBC Canadian Open,1,12
8,9,9,Troy Kelly,68,"71' 9""",Justin Timberlake Shriners Hospitals for Children Open,1,16
9,10,10,Jhonattan Vegas,77,"70' 5""",Transitions Championship,1,13
10,11,11,Garth Mulroy,59,"70' 1""",The Greenbrier Classic,4,11
11,12,12,Carl Paulson,7,"69' 10""",The McGladrey Classic,3,13
12,13,13,Cameron Beckman,81,"69' 8""",Zurich Classic of New Orleans,2,15
13,14,14,Peter Lonard,10,"69' 7""",FedEx St. Jude Classic,1,14
14,T15,15,Ben Crane,73,"69' 1""",Waste Management Phoenix Open,2,15
15,T15,16,J.J. Killeen,101,"69' 1""",FedEx St. Jude Classic,2,17
16,17,17,Charles Howell III,98,"68' 10""",The McGladrey Classic,3,7
17,18,4,Scott Brown,65,"68' 8""",The Greenbrier Classic,1,12
18,19,19,Danny Lee,74,"68' 4""",FedEx St. Jude Classic,2,17
19,20,20,Tom Gillis,75,"67' 7""",BMW Championship,4,18
20,T21,22,Gavin Coles,72,"67' 2""",Children's Miracle Network Hospitals Classic,4,18
21,T21,21,Andres Romero,68,"67' 2""",the Memorial Tournament presented by Nationwide Insurance,3,4
22,23,23,Mathew Goggin,65,"67' 0""",Frys.com Open,4,3
23,24,24,Roberto Castro,92,"66' 8""",The Greenbrier Classic,1,3
24,T25,22,Gavin Coles,72,"66' 0""",True South Classic,2,1
25,T25,25,Robert Garrigus,89,"66' 0""",Transitions Championship,4,5
26,27,27,Kyle Reifers,86,"65' 8""",Farmers Insurance Open,2,17
27,28,28,Nick Watney,97,"65' 5""",World Golf Championships-Cadillac Championship,1,3
28,29,29,Will Claxton,99,"64' 10""",Wyndham Championship,3,14
29,30,30,Dustin Johnson,70,"64' 1""",AT&T Pebble Beach National Pro-Am,1,6
30,T31,31,Rod Pampling,88,"63' 9""",The Greenbrier Classic,1,8
31,T31,32,Luke Guthrie,14,"63' 9""",John Deere Classic,1,2
32,33,33,Jason Bohn,81,"63' 7""",HP Byron Nelson Championship,1,15
33,34,34,Phil Mickelson,79,"62' 10""",Wells Fargo Championship,4,17
34,35,35,Webb Simpson,77,"62' 8""",Wells Fargo Championship,1,12
35,T36,37,Harrison Frazar,56,"62' 6""",HP Byron Nelson Championship,2,17
36,T36,2,Seung-Yul Noh,105,"62' 6""",Arnold Palmer Invitational presented by MasterCard,4,10
37,38,37,Harrison Frazar,56,"62' 4""",Sony Open in Hawaii,3,5
38,39,39,John Rollins,81,"62' 2""",The McGladrey Classic,1,3
39,40,40,Jamie Lovemark,44,"61' 11""",Shell Houston Open,1,2
40,41,41,Graham DeLaet,79,"61' 0""",HP Byron Nelson Championship,3,18
41,42,42,Juvic Pagunsan,8,"60' 9""",World Golf Championships-Cadillac Championship,4,6
42,43,43,Russell Knox,72,"60' 7""",Zurich Classic of New Orleans,1,4
43,44,25,Robert Garrigus,89,"60' 2""",BMW Championship,4,13
44,45,29,Will Claxton,99,"60' 0""",The McGladrey Classic,3,17
45,46,46,Jonas Blixt,72,"59' 11""",HP Byron Nelson Championship,3,1
46,47,47,Troy Matteson,100,"59' 10""",John Deere Classic,4,17
47,T48,28,Nick Watney,97,"59' 7""",BMW Championship,2,13
48,T48,46,Jonas Blixt,72,"59' 7""",Sony Open in Hawaii,1,2
49,T48,49,Blake Adams,107,"59' 7""",THE PLAYERS Championship,2,2
50,51,51,Matt Bettencourt,80,"59' 3""",Zurich Classic of New Orleans,1,3
51,T52,52,√Ångel Cabrera,54,"58' 11""",Waste Management Phoenix Open,1,3
52,T52,46,Jonas Blixt,72,"58' 11""",Wells Fargo Championship,1,7
53,T52,53,Martin Flores,95,"58' 11""",Arnold Palmer Invitational presented by MasterCard,1,2
54,T55,17,Charles Howell III,98,"58' 10""",Waste Management Phoenix Open,2,13
55,T55,56,Trevor Immelman,76,"58' 10""",the Memorial Tournament presented by Nationwide Insurance,2,3
56,T57,57,Hunter Haas,69,"58' 9""",Shell Houston Open,2,8
57,T57,46,Jonas Blixt,72,"58' 9""",Justin Timberlake Shriners Hospitals for Children Open,1,17
58,T59,60,Sergio Garcia,57,"58' 8""",TOUR Championship by Coca-Cola,4,5
59,T59,59,Scott Piercy,95,"58' 8""",Hyundai Tournament of Champions,1,17
60,T59,61,Charlie Beljan,61,"58' 8""",The McGladrey Classic,1,9
61,62,62,Marc Leishman,84,"58' 6""",RBC Heritage,1,10
62,63,63,Greg Chalmers,88,"58' 4""",The Honda Classic,4,14
63,64,64,Kevin Stadler,85,"58' 2""",Northern Trust Open,3,3
64,65,65,Jeff Overton,101,"58' 1""",Shell Houston Open,4,5
65,T66,67,Fulton Allem,6,"57' 10""",Crowne Plaza Invitational at Colonial,2,8
66,T66,66,Vijay Singh,99,"57' 10""",Northern Trust Open,2,3
67,T68,62,Marc Leishman,84,"57' 9""",Shell Houston Open,3,14
68,T68,69,Scott Stallings,78,"57' 9""",True South Classic,2,9
69,70,29,Will Claxton,99,"57' 8""",Shell Houston Open,2,17
70,T71,72,Brendon de Jonge,115,"57' 7""",THE PLAYERS Championship,1,16
71,T71,53,Martin Flores,95,"57' 7""",The Honda Classic,1,7
72,73,73,Jimmy Walker,101,"57' 6""",BMW Championship,1,10
73,74,74,Ben Ferguson,2,"57' 5""",RBC Canadian Open,2,14
74,T75,75,Stewart Cink,71,"57' 1""",Shell Houston Open,2,11
75,T75,77,Billy Horschel,63,"57' 1""",The Greenbrier Classic,3,15
76,T75,69,Scott Stallings,78,"57' 1""",FedEx St. Jude Classic,2,13
77,78,78,Jess Ferrell,2,"56' 11""",The Greenbrier Classic,1,7
78,79,63,Greg Chalmers,88,"56' 8""",Waste Management Phoenix Open,1,17
79,80,80,John Merrick,83,"56' 7""",Waste Management Phoenix Open,2,3
80,81,81,Joe Ogilvie,47,"56' 3""",Transitions Championship,4,16
81,82,3,James Driscoll,83,"56' 2""",Justin Timberlake Shriners Hospitals for Children Open,2,8
82,T83,84,Bryce Molder,83,"56' 1""",BMW Championship,4,7
83,T83,83,Sangmoon Bae,81,"56' 1""",AT&T Pebble Beach National Pro-Am,3,5
84,T85,87,Rocco Mediate,70,"55' 10""",True South Classic,1,11
85,T85,17,Charles Howell III,98,"55' 10""",RBC Heritage,2,16
86,T85,86,Heath Slocum,93,"55' 10""",AT&T National,4,18
87,T85,88,Brandt Snedeker,81,"55' 10""",Wyndham Championship,2,12
88,T89,90,Scott Verplank,18,"55' 9""",Children's Miracle Network Hospitals Classic,1,9
89,T89,56,Trevor Immelman,76,"55' 9""",Wyndham Championship,2,12
90,91,91,Charley Hoffman,88,"55' 8""",The Greenbrier Classic,4,17
91,92,92,John Mallinger,74,"55' 6""",The Honda Classic,2,7
92,93,93,Henrik Stenson,51,"55' 5""",The McGladrey Classic,2,12
93,94,94,Sung Kang,75,"55' 4""",Transitions Championship,4,18
94,95,95,Matt Every,80,"55' 3""",Shell Houston Open,1,9
95,96,96,William McGirt,96,"55' 2""",True South Classic,4,9
96,T97,8,Billy Mayfair,90,"55' 1""",The McGladrey Classic,2,15
97,T97,97,Dicky Pride,62,"55' 1""",Wells Fargo Championship,4,18
98,T97,17,Charles Howell III,98,"55' 1""",The Barclays,4,7
99,T100,101,Paul Casey,20,"54' 10""",World Golf Championships-Cadillac Championship,2,17
100,T100,102,Spencer Levin,81,"54' 10""",The Greenbrier Classic,2,8
101,T100,2,Seung-Yul Noh,105,"54' 10""",The Honda Classic,4,3
102,T103,86,Heath Slocum,93,"54' 9""",Shell Houston Open,2,2
103,T103,104,Pat Perez,81,"54' 9""",The Barclays,2,18
104,105,105,Jerry Kelly,84,"54' 8""",Wyndham Championship,4,5
105,T106,106,Ryuji Imada,78,"54' 6""",Sony Open in Hawaii,1,2
106,T106,65,Jeff Overton,101,"54' 6""",Justin Timberlake Shriners Hospitals for Children Open,4,6
107,108,30,Dustin Johnson,70,"54' 5""",TOUR Championship by Coca-Cola,4,17
108,109,109,Ian Poulter,57,"54' 4""",World Golf Championships-Bridgestone Invitational,2,5
109,T110,111,Gary Christian,91,"54' 3""",The Honda Classic,2,10
110,T110,15,Ben Crane,73,"54' 3""",Hyundai Tournament of Champions,1,11
111,112,86,Heath Slocum,93,"54' 2""",FedEx St. Jude Classic,1,14
112,T113,115,Chris Couch,61,"54' 1""",John Deere Classic,1,2
113,T113,113,Kevin Kisner,69,"54' 1""",Farmers Insurance Open,1,6
114,T113,114,Kevin Chappell,91,"54' 1""",Farmers Insurance Open,3,4
115,116,116,Keegan Bradley,90,"54' 0""",TOUR Championship by Coca-Cola,2,16
116,T117,117,Lee Westwood,60,"53' 11""",The Honda Classic,4,3
117,T117,64,Kevin Stadler,85,"53' 11""",BMW Championship,4,18
118,T119,21,Andres Romero,68,"53' 10""",The Barclays,2,12
119,T119,120,Richard Lee,71,"53' 10""",Frys.com Open,2,3
120,T121,51,Matt Bettencourt,80,"53' 9""",True South Classic,2,18
121,T121,121,Arjun Atwal,79,"53' 9""",Wells Fargo Championship,2,6
122,T121,124,Tim Clark,60,"53' 9""",The Barclays,3,8
123,T121,123,Patrick Cantlay,36,"53' 9""",Wyndham Championship,3,15
124,125,125,David Mathis,83,"53' 8""",THE PLAYERS Championship,3,16
125,126,126,Alexandre Rocha,62,"53' 7""",HP Byron Nelson Championship,2,17
126,T127,3,James Driscoll,83,"53' 6""",Wells Fargo Championship,1,4
127,T127,94,Sung Kang,75,"53' 6""",Sony Open in Hawaii,1,1
128,T129,129,Doug LaBelle II,4,"53' 5""",Sony Open in Hawaii,2,14
129,T129,130,Camilo Villegas,79,"53' 5""",The McGladrey Classic,4,13
130,T131,131,Boo Weekley,74,"53' 4""",AT&T Pebble Beach National Pro-Am,2,5
131,T131,9,Troy Kelly,68,"53' 4""",FedEx St. Jude Classic,1,15
132,133,133,Tiger Woods,69,"53' 2""",The Barclays,3,8
133,T134,111,Gary Christian,91,"53' 1""",Farmers Insurance Open,4,8
134,T134,135,D.J. Trahan,73,"53' 1""",Frys.com Open,2,9
135,T136,136,Joe Durant,40,"53' 0""",HP Byron Nelson Championship,3,3
136,T136,137,Robert Allenby,76,"53' 0""",FedEx St. Jude Classic,4,5
137,T136,138,Michael Hoey,7,"53' 0""",World Golf Championships-Bridgestone Invitational,3,7
138,139,139,Derek Lamely,64,"52' 11""",Transitions Championship,2,18
139,T140,56,Trevor Immelman,76,"52' 10""",Wyndham Championship,1,11
140,T140,33,Jason Bohn,81,"52' 10""",Shell Houston Open,3,11
141,T142,143,Ben Curtis,62,"52' 9""",Frys.com Open,4,1
142,T142,25,Robert Garrigus,89,"52' 9""",Wells Fargo Championship,2,15
143,144,144,Nathan Green,73,"52' 8""",Valero Texas Open,3,11
144,145,106,Ryuji Imada,78,"52' 6""",Frys.com Open,4,8
145,146,146,Cameron Tringale,88,"52' 4""",Shell Houston Open,4,10
146,T147,148,Chris Riley,43,"52' 3""",HP Byron Nelson Championship,3,15
147,T147,147,Alex Cejka,37,"52' 3""",Zurich Classic of New Orleans,1,12
148,T147,31,Rod Pampling,88,"52' 3""",The Greenbrier Classic,2,13
149,T147,150,Joey Snyder III,18,"52' 3""",Children's Miracle Network Hospitals Classic,1,9
150,151,151,Justin Rose,69,"52' 2""",TOUR Championship by Coca-Cola,1,18
151,152,143,Ben Curtis,62,"52' 1""",BMW Championship,4,8
152,T153,153,Charlie Wi,86,"51' 11""",THE PLAYERS Championship,4,3
153,T153,53,Martin Flores,95,"51' 11""",The McGladrey Classic,2,13
154,T155,65,Jeff Overton,101,"51' 10""",John Deere Classic,3,4
155,T155,155,Rickie Fowler,84,"51' 10""",Zurich Classic of New Orleans,3,3
156,157,157,Brian Harman,101,"51' 9""",AT&T National,1,9
157,T158,158,Marc Turnesa,31,"51' 8""",Farmers Insurance Open,4,13
158,T158,1,J.B. Holmes,90,"51' 8""",Justin Timberlake Shriners Hospitals for Children Open,4,5
159,160,114,Kevin Chappell,91,"51' 7""",Crowne Plaza Invitational at Colonial,4,7
160,T161,80,John Merrick,83,"51' 6""",Wyndham Championship,3,15
161,T161,69,Scott Stallings,78,"51' 6""",The McGladrey Classic,1,15
162,T161,116,Keegan Bradley,90,"51' 6""",Farmers Insurance Open,2,11
163,T164,168,Ken Duke,104,"51' 5""",The McGladrey Classic,1,3
164,T164,164,Jason Dufner,83,"51' 5""",Zurich Classic of New Orleans,3,4
165,T164,28,Nick Watney,97,"51' 5""",the Memorial Tournament presented by Nationwide Insurance,2,15
166,T164,77,Billy Horschel,63,"51' 5""",John Deere Classic,3,4
167,T164,167,Bobby Gates,87,"51' 5""",John Deere Classic,1,2
168,T169,170,Steve Stricker,73,"51' 4""",The Barclays,3,5
169,T169,105,Jerry Kelly,84,"51' 4""",Crowne Plaza Invitational at Colonial,3,15
170,T171,174,Robert Karlsson,54,"51' 3""",Children's Miracle Network Hospitals Classic,4,17
171,T171,172,Graeme McDowell,55,"51' 3""",Arnold Palmer Invitational presented by MasterCard,4,6
172,T171,29,Will Claxton,99,"51' 3""",the Memorial Tournament presented by Nationwide Insurance,1,12
173,T171,53,Martin Flores,95,"51' 3""",Farmers Insurance Open,4,12
174,T175,158,Marc Turnesa,31,"51' 2""",Farmers Insurance Open,4,4
175,T175,1,J.B. Holmes,90,"51' 2""",Deutsche Bank Championship,4,11
176,T177,87,Rocco Mediate,70,"51' 1""",Wells Fargo Championship,1,10
177,T177,179,Patrick Sheehan,58,"51' 1""",FedEx St. Jude Classic,1,7
178,T177,177,David Hearn,95,"51' 1""",Transitions Championship,2,5
179,T177,2,Seung-Yul Noh,105,"51' 1""",The Greenbrier Classic,3,14
180,T181,28,Nick Watney,97,"51' 0""",Hyundai Tournament of Champions,2,17
181,T181,83,Sangmoon Bae,81,"51' 0""",AT&T National,1,17
182,T181,183,Bud Cauley,99,"51' 0""",RBC Canadian Open,2,5
183,T184,185,Guy Boros,8,"50' 10""",True South Classic,1,4
184,T184,106,Ryuji Imada,78,"50' 10""",Children's Miracle Network Hospitals Classic,2,9
185,T184,65,Jeff Overton,101,"50' 10""",Deutsche Bank Championship,4,12
186,T184,184,Michael Thompson,80,"50' 10""",Northern Trust Open,3,12
187,T188,188,Skip Kendall,18,"50' 9""",Arnold Palmer Invitational presented by MasterCard,1,14
188,T188,31,Rod Pampling,88,"50' 9""",Wyndham Championship,2,11
189,190,104,Pat Perez,81,"50' 8""",Deutsche Bank Championship,4,9
190,T191,3,James Driscoll,83,"50' 7""",The Barclays,2,13
191,T191,113,Kevin Kisner,69,"50' 7""",Waste Management Phoenix Open,1,12
192,193,109,Ian Poulter,57,"50' 6""",World Golf Championships-Bridgestone Invitational,3,7
193,T194,195,D.A. Points,88,"50' 5""",Children's Miracle Network Hospitals Classic,2,16
194,T194,102,Spencer Levin,81,"50' 5""",The Honda Classic,3,10
195,196,196,Lucas Glover,41,"50' 4""",AT&T National,2,11
196,197,17,Charles Howell III,98,"50' 3""",John Deere Classic,2,2
197,T198,31,Rod Pampling,88,"50' 2""",The McGladrey Classic,3,1
198,T198,151,Justin Rose,69,"50' 2""",The Honda Classic,4,7
199,T198,143,Ben Curtis,62,"50' 2""",BMW Championship,3,2
