,Longest_Drives_RANK THIS WEEK,Longest_Drives_RANK LAST WEEK,Longest_Drives_PLAYER NAME,Longest_Drives_ROUNDS,Longest_Drives_DISTANCE,Longest_Drives_TOURNAMENT,Longest_Drives_ROUND,Longest_Drives_HOLE,Longest_Drives_COURSE
0,1,1,Dustin Johnson,72,463,Deutsche Bank Championship,4,7,700
1,2,2,Derek Lamely,65,419,The Greenbrier Classic,2,7,771
2,T3,T3,Bubba Watson,85,415,World Golf Championships-Bridgestone Invitational,3,16,36
3,T3,T3,J.B. Holmes,57,415,Valero Texas Open,2,10,770
4,5,5,Gary Woodland,93,409,HP Byron Nelson Championship,3,1,19
5,6,6,Chris Couch,73,408,Arnold Palmer Invitational presented by MasterCard,1,5,9
6,7,7,Jason Schmuhl,5,405,Reno-Tahoe Open,1,18,660
7,8,8,Steve Flesch,88,404,The Greenbrier Classic,3,7,771
8,9,6,Chris Couch,73,400,John Deere Classic,1,14,669
9,10,10,James Driscoll,71,399,Reno-Tahoe Open,1,5,660
10,11,T3,Bubba Watson,85,398,Bob Hope Classic,2,6,202
11,12,T3,Bubba Watson,85,397,Hyundai Tournament of Champions,2,7,656
12,13,13,Chris Tidland,30,395,Reno-Tahoe Open,1,18,660
13,14,14,Robert Garrigus,83,394,Hyundai Tournament of Champions,2,18,656
14,15,15,Scott Smith,2,393,Reno-Tahoe Open,1,18,660
15,T16,14,Robert Garrigus,83,392,Hyundai Tournament of Champions,2,17,656
16,T16,T3,Bubba Watson,85,392,Hyundai Tournament of Champions,1,17,656
17,T16,1,Dustin Johnson,72,392,World Golf Championships-Bridgestone Invitational,4,16,36
18,T19,T19,D.J. Trahan,91,391,Arnold Palmer Invitational presented by MasterCard,2,5,9
19,T19,T19,Alvaro Quiros,25,391,World Golf Championships-Bridgestone Invitational,4,16,36
20,T19,T19,Josh Teater,104,391,Reno-Tahoe Open,4,8,660
21,T22,14,Robert Garrigus,83,390,the Memorial Tournament presented by Nationwide Insurance,3,17,23
22,T22,T22,Kyle Stanley,98,390,John Deere Classic,4,10,669
23,T22,T22,Zack Miller,86,390,the Memorial Tournament presented by Nationwide Insurance,3,17,23
24,T25,T25,Ángel Cabrera,50,389,the Memorial Tournament presented by Nationwide Insurance,3,17,23
25,T25,T3,Bubba Watson,85,389,World Golf Championships-Bridgestone Invitational,3,13,36
26,T25,T25,David Hearn,88,389,Reno-Tahoe Open,1,18,660
27,T25,2,Derek Lamely,65,389,Hyundai Tournament of Champions,1,17,656
28,T29,T29,Justin Leonard,82,388,Valero Texas Open,2,10,770
29,T29,T29,Ryan Palmer,82,388,Shell Houston Open,2,17,729
30,T29,1,Dustin Johnson,72,388,AT&T Pebble Beach National Pro-Am,4,2,5
31,T29,5,Gary Woodland,93,388,The Open Championship,1,2,778
32,T33,T3,Bubba Watson,85,387,Hyundai Tournament of Champions,1,6,656
33,T33,T33,Scott Piercy,78,387,Reno-Tahoe Open,4,18,660
34,T33,T19,Josh Teater,104,387,The Honda Classic,1,4,734
35,T33,T33,Jason Day,76,387,Hyundai Tournament of Champions,1,17,656
36,T33,T33,Scott Stallings,84,387,World Golf Championships-Bridgestone Invitational,3,16,36
37,T38,T38,Phil Mickelson,79,386,the Memorial Tournament presented by Nationwide Insurance,3,18,23
38,T38,T38,Charley Hoffman,93,386,HP Byron Nelson Championship,2,1,19
39,T38,T33,Scott Piercy,78,386,HP Byron Nelson Championship,3,3,19
40,T38,T38,Scott Gordon,43,386,HP Byron Nelson Championship,3,1,19
41,T42,14,Robert Garrigus,83,385,Hyundai Tournament of Champions,3,18,656
42,T42,T3,Bubba Watson,85,385,Bob Hope Classic,1,2,741
43,T42,T42,Michael Letzig,33,385,Shell Houston Open,2,8,729
44,T42,T42,Jeff Overton,92,385,The Honda Classic,3,4,734
45,T46,8,Steve Flesch,88,384,Valero Texas Open,2,17,770
46,T46,T19,Josh Teater,104,384,Reno-Tahoe Open,4,9,660
47,T46,T22,Kyle Stanley,98,384,HP Byron Nelson Championship,4,1,19
48,T46,5,Gary Woodland,93,384,HP Byron Nelson Championship,4,1,19
49,T50,T50,Vijay Singh,79,383,HP Byron Nelson Championship,4,3,19
50,T50,14,Robert Garrigus,83,383,Reno-Tahoe Open,3,18,660
51,T50,T19,Josh Teater,104,383,Reno-Tahoe Open,3,9,660
52,T50,T50,Michael Putnam,67,383,Valero Texas Open,2,17,770
53,T50,1,Dustin Johnson,72,383,Hyundai Tournament of Champions,4,18,656
54,T55,T55,Stuart Appleby,65,382,Hyundai Tournament of Champions,2,12,656
55,T55,T29,Ryan Palmer,82,382,HP Byron Nelson Championship,3,1,19
56,T55,T55,Michael Thompson,79,382,Viking Classic,2,14,609
57,T58,8,Steve Flesch,88,381,Reno-Tahoe Open,4,18,660
58,T58,T58,Harrison Frazar,58,381,Shell Houston Open,2,8,729
59,T58,T29,Ryan Palmer,82,381,HP Byron Nelson Championship,3,3,19
60,T58,T3,Bubba Watson,85,381,The Open Championship,4,1,778
61,T58,T3,Bubba Watson,85,381,World Golf Championships-Bridgestone Invitational,3,9,36
62,T58,T58,Colt Knost,80,381,Reno-Tahoe Open,1,1,660
63,T64,T64,Bo Van Pelt,92,380,The Open Championship,1,2,778
64,T64,T64,Sean O'Hair,71,380,World Golf Championships-Bridgestone Invitational,1,3,36
65,T64,T64,Steven Bowditch,86,380,HP Byron Nelson Championship,3,3,19
66,T64,T42,Michael Letzig,33,380,Reno-Tahoe Open,3,8,660
67,T64,T33,Jason Day,76,380,The Open Championship,2,1,778
68,T64,T42,Jeff Overton,92,380,HP Byron Nelson Championship,3,3,19
69,T64,1,Dustin Johnson,72,380,PGA Championship,2,5,780
70,T64,T64,Sam Smith,2,380,HP Byron Nelson Championship,2,3,19
71,T72,T72,Kenny Perry,36,379,Waste Management Phoenix Open,1,8,510
72,T72,14,Robert Garrigus,83,379,The Heritage,4,5,12
73,T72,T72,Peter Tomasulo,36,379,Reno-Tahoe Open,3,8,660
74,T72,1,Dustin Johnson,72,379,the Memorial Tournament presented by Nationwide Insurance,3,17,23
75,T72,T22,Zack Miller,86,379,Valero Texas Open,2,10,770
76,T72,T72,Cameron Tringale,110,379,Valero Texas Open,4,15,770
77,T78,T38,Phil Mickelson,79,378,the Memorial Tournament presented by Nationwide Insurance,3,17,23
78,T78,T38,Charley Hoffman,93,378,HP Byron Nelson Championship,2,3,19
79,T78,T78,Lee Westwood,36,378,World Golf Championships-Bridgestone Invitational,3,16,36
80,T78,T78,Hunter Mahan,92,378,Hyundai Tournament of Champions,2,7,656
81,T78,T78,Matt Jones,71,378,Valero Texas Open,2,17,770
82,T78,T78,Michael Sim,45,378,Valero Texas Open,2,17,770
83,T78,1,Dustin Johnson,72,378,Hyundai Tournament of Champions,2,1,656
84,T78,T78,Chris Kirk,87,378,Valero Texas Open,2,17,770
85,T86,T25,Ángel Cabrera,50,377,The Open Championship,1,2,778
86,T86,T86,Peter Hanson,35,377,The Open Championship,2,1,778
87,T86,14,Robert Garrigus,83,377,Hyundai Tournament of Champions,4,18,656
88,T86,T86,Pat Perez,76,377,Reno-Tahoe Open,3,18,660
89,T86,T86,Adam Scott,60,377,Valero Texas Open,4,18,770
90,T86,T33,Scott Piercy,78,377,Reno-Tahoe Open,4,8,660
91,T86,T3,J.B. Holmes,57,377,the Memorial Tournament presented by Nationwide Insurance,3,13,23
92,T86,T86,Brendan Steele,89,377,Valero Texas Open,2,10,770
93,T86,T86,Rickie Fowler,84,377,The Open Championship,1,2,778
94,T86,T86,Keegan Bradley,91,377,Valero Texas Open,2,10,770
95,T86,T86,Will Strickler,51,377,Viking Classic,4,14,609
96,T97,T97,Bill Haas,93,376,Hyundai Tournament of Champions,4,6,656
97,T97,T97,Scott Gutschewski,67,376,Valero Texas Open,2,17,770
98,T97,T22,Kyle Stanley,98,376,Valero Texas Open,2,11,770
99,T97,5,Gary Woodland,93,376,Waste Management Phoenix Open,4,13,510
100,T101,T101,Brandt Jobe,100,375,HP Byron Nelson Championship,4,1,19
101,T101,T101,David Duval,67,375,AT&T Pebble Beach National Pro-Am,2,10,769
102,T101,T101,Jesper Parnevik,26,375,Valero Texas Open,2,17,770
103,T101,T101,Sergio Garcia,61,375,HP Byron Nelson Championship,2,1,19
104,T101,T101,Justin Rose,79,375,Hyundai Tournament of Champions,2,7,656
105,T101,T29,Ryan Palmer,82,375,Valero Texas Open,2,17,770
106,T101,T29,Ryan Palmer,82,375,HP Byron Nelson Championship,4,3,19
107,T101,14,Robert Garrigus,83,375,Hyundai Tournament of Champions,1,12,656
108,T101,T86,Adam Scott,60,375,Hyundai Tournament of Champions,3,6,656
109,T101,T86,Adam Scott,60,375,World Golf Championships-Bridgestone Invitational,3,16,36
110,T101,T101,Graeme McDowell,50,375,Hyundai Tournament of Champions,4,6,656
111,T101,T3,J.B. Holmes,57,375,Valero Texas Open,4,15,770
112,T101,T101,Chris Stroud,88,375,Valero Texas Open,2,17,770
113,T101,T22,Kyle Stanley,98,375,Valero Texas Open,2,10,770
114,T101,T22,Kyle Stanley,98,375,Wells Fargo Championship,4,7,698
115,T101,T101,Tommy Gainey,104,375,HP Byron Nelson Championship,3,3,19
116,T101,T101,Alex Prugh,82,375,Reno-Tahoe Open,3,8,660
117,T101,T86,Keegan Bradley,91,375,Farmers Insurance Open,3,14,4
118,T119,T119,Michael Bradley,74,374,HP Byron Nelson Championship,3,12,19
119,T119,T101,David Duval,67,374,Valero Texas Open,2,17,770
120,T119,T38,Charley Hoffman,93,374,the Memorial Tournament presented by Nationwide Insurance,3,17,23
121,T119,T119,Brett Wetterich,28,374,HP Byron Nelson Championship,3,1,19
122,T119,14,Robert Garrigus,83,374,the Memorial Tournament presented by Nationwide Insurance,3,13,23
123,T119,14,Robert Garrigus,83,374,Reno-Tahoe Open,2,18,660
124,T119,14,Robert Garrigus,83,374,Reno-Tahoe Open,3,8,660
125,T119,14,Robert Garrigus,83,374,Reno-Tahoe Open,3,9,660
126,T119,T119,Charl Schwartzel,58,374,the Memorial Tournament presented by Nationwide Insurance,3,17,23
127,T119,T119,Charl Schwartzel,58,374,The Open Championship,2,1,778
128,T119,T119,Troy Matteson,91,374,Valero Texas Open,1,18,770
129,T119,T119,Troy Matteson,91,374,the Memorial Tournament presented by Nationwide Insurance,3,1,23
130,T119,T119,Rory McIlroy,36,374,The Honda Classic,3,10,734
131,T119,T50,Michael Putnam,67,374,John Deere Classic,2,14,669
132,T119,5,Gary Woodland,93,374,The Honda Classic,1,10,734
133,T119,T119,Bobby Gates,82,374,Valero Texas Open,2,10,770
134,T119,T64,Sam Smith,2,374,HP Byron Nelson Championship,1,6,19
135,T136,T136,Todd Hamilton,32,373,HP Byron Nelson Championship,2,1,19
136,T136,T38,Phil Mickelson,79,373,World Golf Championships-Bridgestone Invitational,3,8,36
137,T136,T136,Tim Petrovic,88,373,Valero Texas Open,2,10,770
138,T136,T136,Arjun Atwal,91,373,Hyundai Tournament of Champions,4,6,656
139,T136,T136,Arjun Atwal,91,373,Valero Texas Open,2,10,770
140,T136,T136,Ted Purdy,14,373,Valero Texas Open,2,10,770
141,T136,T119,Brett Wetterich,28,373,HP Byron Nelson Championship,4,1,19
142,T136,T136,Charles Warren,29,373,John Deere Classic,4,10,669
143,T136,T64,Bo Van Pelt,92,373,Valero Texas Open,2,17,770
144,T136,T19,D.J. Trahan,91,373,John Deere Classic,2,14,669
145,T136,14,Robert Garrigus,83,373,Shell Houston Open,1,8,729
146,T136,T136,Carl Pettersson,95,373,HP Byron Nelson Championship,4,3,19
147,T136,T3,Bubba Watson,85,373,Hyundai Tournament of Champions,4,18,656
148,T136,T3,Bubba Watson,85,373,TOUR Championship by Coca-Cola,2,5,688
149,T136,T136,Boo Weekley,66,373,Reno-Tahoe Open,2,14,660
150,T136,T78,Matt Jones,71,373,Reno-Tahoe Open,1,5,660
151,T136,T136,Kevin Stadler,88,373,the Memorial Tournament presented by Nationwide Insurance,3,2,23
152,T136,T136,Seung-Yul Noh,19,373,The Open Championship,4,1,778
153,T136,T101,Tommy Gainey,104,373,HP Byron Nelson Championship,1,6,19
154,T136,1,Dustin Johnson,72,373,Hyundai Tournament of Champions,2,6,656
155,T136,1,Dustin Johnson,72,373,Hyundai Tournament of Champions,2,18,656
156,T136,T119,Bobby Gates,82,373,AT&T Pebble Beach National Pro-Am,2,10,769
157,T158,T119,Michael Bradley,74,372,HP Byron Nelson Championship,3,1,19
158,T158,T158,Robert Karlsson,61,372,The Barclays,3,2,781
159,T158,10,James Driscoll,71,372,John Deere Classic,1,2,669
160,T158,T158,Tag Ridings,87,372,Valero Texas Open,2,10,770
161,T158,T64,Sean O'Hair,71,372,World Golf Championships-Bridgestone Invitational,3,16,36
162,T158,14,Robert Garrigus,83,372,The Heritage,3,5,12
163,T158,14,Robert Garrigus,83,372,HP Byron Nelson Championship,3,10,19
164,T158,T97,Scott Gutschewski,67,372,Reno-Tahoe Open,2,8,660
165,T158,T158,Louis Oosthuizen,46,372,World Golf Championships-Bridgestone Invitational,3,8,36
166,T158,T158,Martin Laird,77,372,The Open Championship,1,2,778
167,T158,T33,Jason Day,76,372,HP Byron Nelson Championship,4,1,19
168,T158,T158,Blake Adams,116,372,HP Byron Nelson Championship,2,1,19
169,T158,T101,Tommy Gainey,104,372,John Deere Classic,2,2,669
170,T158,T101,Alex Prugh,82,372,HP Byron Nelson Championship,2,1,19
171,T158,T22,Zack Miller,86,372,HP Byron Nelson Championship,2,3,19
172,T158,T158,Joseph Bramlett,73,372,Reno-Tahoe Open,2,18,660
173,T174,T136,Todd Hamilton,32,371,Wyndham Championship,1,18,752
174,T174,T174,Bob May,6,371,Reno-Tahoe Open,4,1,660
175,T174,T158,Robert Karlsson,61,371,The Honda Classic,2,4,734
176,T174,T174,John Rollins,85,371,HP Byron Nelson Championship,3,3,19
177,T174,T119,Brett Wetterich,28,371,HP Byron Nelson Championship,4,3,19
178,T174,10,James Driscoll,71,371,Reno-Tahoe Open,2,8,660
179,T174,T174,K.J. Choi,77,371,World Golf Championships-Bridgestone Invitational,3,8,36
180,T174,T3,J.B. Holmes,57,371,Shell Houston Open,4,18,729
181,T174,T174,Anthony Kim,72,371,Hyundai Tournament of Champions,4,6,656
182,T174,T22,Kyle Stanley,98,371,John Deere Classic,2,2,669
183,T174,T33,Scott Stallings,84,371,HP Byron Nelson Championship,2,1,19
184,T174,5,Gary Woodland,93,371,The Honda Classic,3,4,734
185,T174,T22,Zack Miller,86,371,HP Byron Nelson Championship,3,12,19
186,T174,T22,Zack Miller,86,371,John Deere Classic,1,2,669
187,T188,T188,John Daly,49,370,Wyndham Championship,2,18,752
188,T188,T101,Brandt Jobe,100,370,Valero Texas Open,4,15,770
189,T188,T38,Charley Hoffman,93,370,Hyundai Tournament of Champions,2,6,656
190,T188,T64,Sean O'Hair,71,370,World Golf Championships-Bridgestone Invitational,3,8,36
191,T188,14,Robert Garrigus,83,370,Hyundai Tournament of Champions,2,6,656
192,T188,14,Robert Garrigus,83,370,Reno-Tahoe Open,1,18,660
193,T188,T97,Bill Haas,93,370,Crowne Plaza Invitational at Colonial,4,7,21
194,T188,T188,Jhonattan Vegas,84,370,John Deere Classic,1,2,669
195,T188,T3,J.B. Holmes,57,370,AT&T Pebble Beach National Pro-Am,4,10,5
196,T188,T158,Martin Laird,77,370,World Golf Championships-Bridgestone Invitational,3,16,36
197,T188,T33,Scott Stallings,84,370,John Deere Classic,3,10,669
198,T188,1,Dustin Johnson,72,370,TOUR Championship by Coca-Cola,3,9,688
199,T188,5,Gary Woodland,93,370,HP Byron Nelson Championship,3,3,19
