,Longest_Hole_Outs_in_yards_RANK THIS WEEK,Longest_Hole_Outs_in_yards_RANK LAST WEEK,Longest_Hole_Outs_in_yards_PLAYER NAME,Longest_Hole_Outs_in_yards_ROUNDS,Longest_Hole_Outs_in_yards_DISTANCE,Longest_Hole_Outs_in_yards_TOURNAMENT,Longest_Hole_Outs_in_yards_ROUND- COURSE,Longest_Hole_Outs_in_yards_HOLE
0,1,1,Jason Gore,78,250,Farmers Insurance Open,3,18
1,2,2,Tony Finau,95,236,Shriners Hospitals for Children Open,2,13
2,3,3,Roberto Castro,97,221,Wells Fargo Championship,2,18
3,4,4,Alex Redfield,2,217,Barbasol Championship,1,5
4,5,5,Si Woo Kim,113,216,Travelers Championship,1,5
5,6,6,Alex Cejka,71,212,Shriners Hospitals for Children Open,3,17
6,7,7,Andres Gonzales,80,210,Barbasol Championship,3,18
7,8,8,Matt Every,40,209,Waste Management Phoenix Open,3,2
8,T9,9,Rod Pampling,54,207,the Memorial Tournament presented by Nationwide,4,16
9,T9,10,Jack Maguire,4,207,Waste Management Phoenix Open,2,12
10,11,11,Nick Taylor,83,206,CareerBuilder Challenge in partnership with the Clinton Foundation,2,6
11,12,12,Ricky Barnes,97,204,Zurich Classic of New Orleans,2,3
12,T13,13,Francesco Molinari,64,203,Quicken Loans National,3,11
13,T13,14,Jin Park,3,203,Shriners Hospitals for Children Open,2,3
14,15,15,Scott Stallings,74,200,Valero Texas Open,2,13
15,16,16,Ben Crane,80,198,Farmers Insurance Open,3,15
16,17,17,David Hearn,95,195,the Memorial Tournament presented by Nationwide,1,10
17,18,18,Chad Campbell,90,194,Waste Management Phoenix Open,2,7
18,T19,19,Jhonattan Vegas,97,190,Barbasol Championship,2,17
19,T19,20,John Huh,86,190,DEAN & DELUCA Invitational,1,14
20,21,21,William McGirt,98,188,Wells Fargo Championship,4,2
21,22,22,Matt Jones,83,186,the Memorial Tournament presented by Nationwide,2,18
22,23,23,Freddie Jacobson,86,184,Farmers Insurance Open,3,15
23,24,24,Tyler Aldridge,83,180,Sanderson Farms Championship,2,4
24,25,6,Alex Cejka,71,178,The Honda Classic,1,17
25,26,26,Ernie Els,66,177,Travelers Championship,3,16
26,27,27,Dawie van der Walt,72,174,AT&T Byron Nelson,2,12
27,28,28,Tim Herron,45,167,Barbasol Championship,2,1
28,29,29,Padraig Harrington,54,166,Sony Open in Hawaii,2,5
29,T30,30,Ryan Moore,86,164,Northern Trust Open,4,16
30,T30,31,Luke Donald,81,164,Wyndham Championship,1,16
31,T30,32,Jimmy Walker,85,164,World Golf Championships-Bridgestone Invitational,4,9
32,33,33,Scott Brown,88,163,Wyndham Championship,4,3
33,34,27,Dawie van der Walt,72,162,Wyndham Championship,3,6
34,T35,3,Roberto Castro,97,160,BMW Championship,4,7
35,T35,36,Ryo Ishikawa,17,160,Waste Management Phoenix Open,1,6
36,T35,37,Rob Oppenheim,67,160,Valero Texas Open,2,1
37,T38,38,Kevin Chappell,93,158,DEAN & DELUCA Invitational,1,10
38,T38,39,Spencer Levin,104,158,AT&T Byron Nelson,2,6
39,T38,40,Ben Martin,92,158,the Memorial Tournament presented by Nationwide,4,1
40,41,26,Ernie Els,66,157,Quicken Loans National,3,12
41,T42,42,Shawn Stefani,91,156,Wyndham Championship,3,16
42,T42,43,Peter Malnati,85,156,Wyndham Championship,3,16
43,T42,44,Luke Guthrie,57,156,Wyndham Championship,4,13
44,T45,45,Carl Pettersson,49,155,FedEx St. Jude Classic,2,7
45,T45,46,Jared du Toit,4,155,RBC Canadian Open,1,17
46,47,47,Brendan Steele,88,154,the Memorial Tournament presented by Nationwide,1,18
47,48,48,Bill Haas,86,153,DEAN & DELUCA Invitational,4,14
48,49,49,Bronson Burgoon,83,151,FedEx St. Jude Classic,2,9
49,T50,50,Tyrone Van Aswegen,105,150,Northern Trust Open,3,16
50,T50,51,Steve Stricker,53,150,Valspar Championship,2,10
51,T50,52,Chris Stroud,82,150,RBC Canadian Open,4,3
52,T50,53,Patrick Rodgers,89,150,Barbasol Championship,2,11
53,T50,5,Si Woo Kim,113,150,Travelers Championship,2,3
54,T55,55,D.A. Points,55,149,Valero Texas Open,4,11
55,T55,56,Johnson Wagner,86,149,Wyndham Championship,4,6
56,T55,57,Charlie Danielson,14,149,John Deere Classic,3,18
57,T58,58,Sergio Garcia,54,148,The Honda Classic,1,2
58,T58,59,Blayne Barber,84,148,Valspar Championship,1,12
59,T58,60,Willy Wilcox,67,148,THE PLAYERS Championship,2,17
60,61,61,Steve Marino,72,147,Barbasol Championship,4,1
61,T62,62,Kyle Reifers,115,146,Sony Open in Hawaii,1,15
62,T62,63,Robert Streb,87,146,Wyndham Championship,1,17
63,T62,64,Patton Kizzire,93,146,Sanderson Farms Championship,3,14
64,65,65,Webb Simpson,70,145,the Memorial Tournament presented by Nationwide,3,9
65,66,66,Greg Owen,85,144,Sony Open in Hawaii,1,12
66,T67,67,Charl Schwartzel,73,142,TOUR Championship,3,7
67,T67,68,Ryan Palmer,86,142,PGA Championship,3,2
68,T67,69,Chesson Hadley,81,142,CareerBuilder Challenge in partnership with the Clinton Foundation,2,18
69,T70,15,Scott Stallings,74,141,Valero Texas Open,4,6
70,T70,71,D.H. Lee,61,141,Frys.com Open,1,14
71,72,42,Shawn Stefani,91,139,FedEx St. Jude Classic,1,9
72,73,73,Andrew Landry,53,138,John Deere Classic,4,8
73,74,74,Rory McIlroy,69,137,TOUR Championship,4,16
74,T75,75,Brendon Todd,66,136,RBC Heritage,1,16
75,T75,76,Keegan Bradley,82,136,Zurich Classic of New Orleans,2,4
76,T77,77,Carlos Ortiz,79,135,Wells Fargo Championship,3,17
77,T77,78,Brian Stuard,66,135,Farmers Insurance Open,1,14
78,T77,79,Jim Furyk,52,135,Travelers Championship,4,3
79,T77,55,D.A. Points,55,135,Shell Houston Open,2,1
80,81,81,Smylie Kaufman,91,134,Waste Management Phoenix Open,2,1
81,T82,82,K.T. Kim,22,133,World Golf Championships-Cadillac Championship,4,12
82,T82,83,Abraham Ancer,51,133,AT&T Byron Nelson,2,9
83,84,84,Erik Compton,65,132,Travelers Championship,2,9
84,T85,85,Troy Merritt,77,129,DEAN & DELUCA Invitational,3,18
85,T85,86,Charles Howell III,91,129,AT&T Byron Nelson,1,1
86,T87,1,Jason Gore,78,128,Valspar Championship,1,6
87,T87,60,Willy Wilcox,67,128,AT&T Pebble Beach Pro-Am,4,13
88,T87,89,Bryce Molder,80,128,Deutsche Bank Championship,2,1
89,90,90,Hideki Matsuyama,76,127,PGA Championship,2,2
90,T91,44,Luke Guthrie,57,126,Sanderson Farms Championship,1,8
91,T91,92,Daniel Summerhays,99,126,PGA Championship,3,2
92,T91,93,Kevin Kisner,97,126,The Barclays,1,2
93,T91,92,Daniel Summerhays,99,126,Frys.com Open,1,8
94,95,95,Mark Hubbard,101,125,Sony Open in Hawaii,1,15
95,96,96,Jim Herman,93,123,Arnold Palmer Invitational presented by MasterCard,3,6
96,T97,97,Luke List,79,122,Quicken Loans National,1,16
97,T97,3,Roberto Castro,97,122,Sanderson Farms Championship,2,8
98,T97,20,John Huh,86,122,Frys.com Open,1,16
99,T100,100,Russell Henley,76,121,Shell Houston Open,3,1
100,T100,89,Bryce Molder,80,121,CareerBuilder Challenge in partnership with the Clinton Foundation,3,16
101,T100,102,Soomin Lee,6,121,PGA Championship,2,2
102,T103,103,Cameron Percy,49,120,John Deere Classic,1,8
103,T103,85,Troy Merritt,77,120,Barbasol Championship,1,11
104,T103,105,Shane Lowry,57,120,THE PLAYERS Championship,2,18
105,106,22,Matt Jones,83,118,World Golf Championships-Bridgestone Invitational,3,10
106,T107,107,Bud Cauley,47,117,AT&T Byron Nelson,1,10
107,T107,108,Retief Goosen,55,117,John Deere Classic,2,8
108,109,24,Tyler Aldridge,83,116,AT&T Pebble Beach Pro-Am,3,15
109,T110,110,Thomas Aiken,70,115,AT&T Byron Nelson,2,4
110,T110,11,Nick Taylor,83,115,Valero Texas Open,2,8
111,112,112,Jerry Kelly,76,113,Travelers Championship,4,12
112,T113,26,Ernie Els,66,112,Wells Fargo Championship,4,7
113,T113,114,Justin Rose,65,112,Arnold Palmer Invitational presented by MasterCard,1,3
114,115,115,Ollie Schniederjans,23,111,Shriners Hospitals for Children Open,2,12
115,T116,116,Chez Reavie,90,110,AT&T Pebble Beach Pro-Am,2,11
116,T116,67,Charl Schwartzel,73,110,The Barclays,3,1
117,118,118,Martin Piller,59,108,CareerBuilder Challenge in partnership with the Clinton Foundation,1,11
118,119,71,D.H. Lee,61,107,the Memorial Tournament presented by Nationwide,1,3
119,T120,116,Chez Reavie,90,103,Shriners Hospitals for Children Open,1,13
120,T120,121,Thongchai Jaidee,27,103,PGA Championship,4,3
121,T122,69,Chesson Hadley,81,101,Shell Houston Open,1,13
122,T122,123,Dustin Johnson,87,101,AT&T Byron Nelson,1,4
123,124,124,Hudson Swafford,104,100,The Barclays,2,13
124,125,116,Chez Reavie,90,99,Shell Houston Open,1,12
125,T126,38,Kevin Chappell,93,98,Quicken Loans National,2,1
126,T126,37,Rob Oppenheim,67,98,CareerBuilder Challenge in partnership with the Clinton Foundation,2,12
127,128,128,Jon Curran,99,96,the Memorial Tournament presented by Nationwide,2,5
128,T129,129,Adam Scott,79,95,The Barclays,3,1
129,T129,123,Dustin Johnson,87,95,THE PLAYERS Championship,2,12
130,T131,43,Peter Malnati,85,94,Valero Texas Open,1,17
131,T131,132,Henrik Norlander,71,94,Travelers Championship,1,13
132,T131,133,Brendon de Jonge,83,94,Quicken Loans National,2,8
133,T134,134,Colt Knost,90,92,The Barclays,2,7
134,T134,5,Si Woo Kim,113,92,Sony Open in Hawaii,1,13
135,T136,136,Danny Lee,93,91,DEAN & DELUCA Invitational,4,2
136,T136,116,Chez Reavie,90,91,The RSM Classic,3,5
137,T136,138,Brandt Snedeker,93,91,DEAN & DELUCA Invitational,2,1
138,T139,139,Andy Sullivan,39,90,The Honda Classic,2,6
139,T139,116,Chez Reavie,90,90,Quicken Loans National,1,16
140,141,136,Danny Lee,93,89,the Memorial Tournament presented by Nationwide,1,7
141,T142,139,Andy Sullivan,39,88,THE PLAYERS Championship,2,6
142,T142,143,Harold Varner III,92,88,Quicken Loans National,3,16
143,144,8,Matt Every,40,87,The Honda Classic,2,13
144,145,145,Scott Pinckney,87,86,Barbasol Championship,3,16
145,146,146,Philip Barbaree,2,84,FedEx St. Jude Classic,2,1
146,T147,147,Tom Hoge,81,83,Quicken Loans National,2,8
147,T147,32,Jimmy Walker,85,83,World Golf Championships-Cadillac Championship,4,17
148,T147,149,Harris English,97,83,DEAN & DELUCA Invitational,4,1
149,150,150,Billy Hurley III,66,82,John Deere Classic,2,2
150,151,151,Emiliano Grillo,93,81,Deutsche Bank Championship,1,18
151,152,152,Gary Woodland,95,80,PGA Championship,2,2
152,153,6,Alex Cejka,71,77,the Memorial Tournament presented by Nationwide,3,5
153,154,154,Morgan Hoffmann,71,76,Shell Houston Open,1,4
154,155,155,Derek Ernst,59,75,Barbasol Championship,1,6
155,156,156,Jeff Overton,69,74,Wells Fargo Championship,1,14
156,157,85,Troy Merritt,77,73,Wyndham Championship,3,5
157,158,158,Rory Sabbatini,57,71,RBC Canadian Open,2,14
158,T159,145,Scott Pinckney,87,69,Shell Houston Open,3,15
159,T159,51,Steve Stricker,53,69,Sony Open in Hawaii,3,10
160,T159,129,Adam Scott,79,69,PGA Championship,4,8
161,T162,138,Brandt Snedeker,93,66,BMW Championship,4,16
162,T162,163,Lee Westwood,25,66,Shell Houston Open,1,4
163,T164,164,Jarrod Lyle,26,64,Frys.com Open,1,16
164,T164,165,Scott Piercy,87,64,PGA Championship,2,8
165,T166,68,Ryan Palmer,86,63,THE PLAYERS Championship,3,11
166,T166,167,Lucas Lee,42,63,Valspar Championship,1,3
167,168,168,Jordan Spieth,80,60,BMW Championship,3,11
168,169,89,Bryce Molder,80,58,THE PLAYERS Championship,3,11
169,T170,96,Jim Herman,93,54,DEAN & DELUCA Invitational,3,2
170,T170,171,Jason Dufner,105,54,World Golf Championships-Cadillac Championship,4,11
171,172,172,Patrick Reed,105,52,CareerBuilder Challenge in partnership with the Clinton Foundation,4,11
172,173,173,Ben Curtis,12,51,Arnold Palmer Invitational presented by MasterCard,1,5
173,T174,174,J.B. Holmes,77,50,Farmers Insurance Open,3,12
174,T174,86,Charles Howell III,91,50,Shell Houston Open,2,10
175,T174,154,Morgan Hoffmann,71,50,FedEx St. Jude Classic,2,5
176,T174,177,Jonas Blixt,79,50,Zurich Classic of New Orleans,3,15
177,T174,150,Billy Hurley III,66,50,The Barclays,1,9
178,179,78,Brian Stuard,66,49,Quicken Loans National,2,18
179,T180,180,Robby Ormand,2,48,Valero Texas Open,1,14
180,T180,181,Brian Davis,19,48,Sanderson Farms Championship,1,15
181,T180,182,James Hahn,85,48,Valspar Championship,2,16
182,183,134,Colt Knost,90,47,Arnold Palmer Invitational presented by MasterCard,3,12
183,T184,38,Kevin Chappell,93,45,The RSM Classic,2,15
184,T184,85,Troy Merritt,77,45,Arnold Palmer Invitational presented by MasterCard,1,4
185,T184,9,Rod Pampling,54,45,Quicken Loans National,4,3
186,T184,138,Brandt Snedeker,93,45,Sony Open in Hawaii,1,10
187,188,188,Miguel Angel Carballo,48,44,Frys.com Open,3,17
188,T189,23,Freddie Jacobson,86,43,Sanderson Farms Championship,1,3
189,T189,190,Steve Wheatcroft,85,43,Wells Fargo Championship,1,5
190,191,191,Michael Bradley,24,42,AT&T Byron Nelson,2,7
191,192,128,Jon Curran,99,41,Northern Trust Open,2,4
192,T193,194,Marc Leishman,89,40,THE PLAYERS Championship,1,2
193,T193,49,Bronson Burgoon,83,40,Farmers Insurance Open,1,6
194,T193,195,Steven Bowditch,71,40,Valspar Championship,2,10
195,T193,23,Freddie Jacobson,86,40,Arnold Palmer Invitational presented by MasterCard,2,3
196,T193,30,Ryan Moore,86,40,Waste Management Phoenix Open,4,17
197,T198,198,Graeme McDowell,63,39,Sony Open in Hawaii,1,1
198,T198,199,Bryson DeChambeau,38,39,Travelers Championship,3,12
199,T198,60,Willy Wilcox,67,39,Frys.com Open,3,2
