,Longest_Putts_RANK THIS WEEK,Longest_Putts_RANK LAST WEEK,Longest_Putts_PLAYER NAME,Longest_Putts_ROUNDS,Longest_Putts_DISTANCE,Longest_Putts_YEAR/TOURN#,Longest_Putts_ROUND,Longest_Putts_HOLE
0,1,,Hal Sutton,74,"133' 2""",Mercedes Champ,1,18
1,2,,Harrison Frazar,88,"128' 6""",Bob Hope Chrysl,2,18
2,3,,Jesper Parnevik,85,"116' 11""",Mercedes Champ,1,18
3,4,,Jay Haas,83,"104' 11""",Shell Houston,4,6
4,5,,Chris Smith,103,"98' 8""",Phoenix Open,1,13
5,6,,Robin Freeman,79,"96' 9""",Sony Open,2,18
6,7,,Ben Crane,91,"89' 6""",Bob Hope Chrysl,2,11
7,8,,Grant Waite,98,"88' 4""",Buick Open,1,16
8,9,,Gary Nicklaus,66,"88' 3""",Bay Hill Invita,2,18
9,10,,David Duval,78,"87' 1""",Bob Hope Chrysl,5,11
10,11,,Craig Perks,91,"83' 9""",Phoenix Open,1,13
11,12,,Vijay Singh,102,"83' 0""",THE TOUR Champ,3,15
12,13,,Brad Elder,76,"82' 7""",Bob Hope Chrysl,5,6
13,14,,Rocco Mediate,79,"82' 6""",Bob Hope Chrysl,5,11
14,15,,John Mahaffey,4,"82' 5""",Bob Hope Chrysl,2,11
15,16,,Brenden Pappas,62,"80' 7""",Tucson Open,2,15
16,17,,Phil Mickelson,97,"79' 7""",BellSouth Class,2,4
17,18,,Wayne DeFrancesco,9,"79' 1""",SEI Pennsylvani,1,16
18,19,,Stuart Appleby,97,"77' 0""",Buick Open,1,16
19,20,,Robert Allenby,96,"76' 7""",THE PLAYERS,3,16
20,21,,Pat Perez,89,"75' 5""",Tampa Bay,3,14
21,22,,Boo Weekley,57,"75' 0""",FedEx St. Jude,2,16
22,23,,Harrison Frazar,88,"74' 3""",THE PLAYERS,1,18
23,24,,Jess Daley,76,"73' 6""",Texas Open,4,14
24,25,,Bob Burns,99,"72' 9""",Tampa Bay,2,14
25,26,,Tripp Isenhour,68,"71' 8""",Tampa Bay,1,16
26,26,,Lee Porter,91,"71' 8""",So. Farm Bureau,3,14
27,28,,Blaine McCallister,75,"71' 0""",Bob Hope Chrysl,4,11
28,29,,Ben Crane,91,"70' 7""",Bob Hope Chrysl,2,18
29,30,,Jason Beebe,2,"70' 6""",B.C. Open,1,10
30,31,,John Huston,99,"69' 9""",Bob Hope Chrysl,2,11
31,32,,Dave Rummells,12,"69' 7""",Texas Open,4,13
32,33,,Brad Adamonis,2,"69' 2""",Buick Classic,2,10
33,34,,D.A. Weibring,25,"68' 6""",Tampa Bay,2,14
34,35,,Jonathan Byrd,96,"67' 8""",Buick Challenge,1,9
35,36,,Tripp Isenhour,68,"67' 3""",Tampa Bay,4,16
36,37,,Tim Herron,102,"67' 1""",Honda Classic,3,16
37,38,,David Frost,90,"66' 9""",Verizon,3,16
38,39,,Jeff Sluman,118,"66' 3""",Bob Hope Chrysl,2,18
39,39,,Steve Pate,64,"66' 3""",B.C. Open,3,12
40,39,,Bob Burns,99,"66' 3""",John Deere Clas,2,17
41,42,,Paul Gow,99,"66' 1""",Phoenix Open,1,13
42,42,,Kaname Yokoo,74,"66' 1""",Buick Open,1,12
43,44,,Phillip Price,20,"65' 11""",Bob Hope Chrysl,5,11
44,44,,John Senden,96,"65' 11""",Texas Open,2,14
45,46,,Jerry Pate,15,"65' 10""",Buick Challenge,2,16
46,47,,Bo Van Pelt,78,"65' 2""",Advil Western,1,15
47,48,,Ronnie Black,28,"65' 1""",Greater Milwauk,2,16
48,49,,Richard Zokol,53,"64' 9""",BellSouth Class,1,9
49,50,,Matt Peterson,80,"64' 5""",BellSouth Class,2,10
50,51,,John Daly,62,"64' 3""",Bob Hope Chrysl,5,18
51,52,,Jay Synkelma,4,"64' 2""",Phoenix Open,2,17
52,53,,Guy Boros,28,"64' 0""",SEI Pennsylvani,3,16
53,54,,Curtis Strange,26,"63' 8""",Bay Hill Invita,1,16
54,55,,Ted Tryba,22,"63' 7""",John Deere Clas,4,12
55,56,,David Peoples,105,"63' 4""",Bob Hope Chrysl,5,18
56,56,,Tim Petrovic,92,"63' 4""",Tampa Bay,1,12
57,58,,Brent Geiberger,95,"63' 3""",Bob Hope Chrysl,3,18
58,58,,Bob Tway,103,"63' 3""",MasterCard Colo,2,13
59,58,,Glen Day,107,"63' 3""",Kemper Ins Open,2,15
60,61,,Pat Bates,94,"63' 2""",Buick Challenge,1,17
61,62,,Joe Ogilvie,50,"63' 1""",Bell Canadian O,1,10
62,63,,Kaname Yokoo,74,"61' 9""",Sony Open,2,18
63,64,,Chad Campbell,111,"61' 8""",SEI Pennsylvani,1,10
64,65,,Mark Carnevale,14,"61' 7""",B.C. Open,4,10
65,66,,Edward Fryatt,94,"61' 5""",B.C. Open,2,14
66,67,,John Riegger,88,"60' 11""",Sony Open,2,16
67,68,,Paul Lawrie,23,"60' 10""",WGC-NEC Invit'l,1,16
68,68,,K.J. Choi,93,"60' 10""",THE TOUR Champ,2,18
69,70,,K.J. Choi,93,"60' 4""",Buick Classic,1,15
70,70,,Jeff Quinney,14,"60' 4""",Air Canada,1,18
71,72,,Hidemichi Tanaka,104,"60' 3""",Bell Canadian O,3,17
72,73,,Olin Browne,107,"60' 2""",Tampa Bay,4,13
73,74,,Brandt Jobe,94,"60' 1""",Bell Canadian O,1,13
74,75,,Fulton Allem,64,"60' 0""",Buick Challenge,1,12
75,76,,Paul Goydos,66,"59' 11""",Buick Open,3,13
76,77,,Glen Day,107,"59' 3""",THE PLAYERS,1,14
77,78,,Jay Williamson,91,"59' 0""",Phoenix Open,1,13
78,78,,Jeff Brehaut,87,"59' 0""",Buick Open,1,15
79,80,,Dudley Hart,88,"58' 11""",MasterCard Colo,1,15
80,80,,Dudley Hart,88,"58' 11""",Buick Challenge,1,11
81,82,,Andrew Magee,91,"58' 10""",Sony Open,2,18
82,83,,Steve Lowery,98,"58' 9""",Bob Hope Chrysl,3,18
83,84,,Jim Furyk,88,"58' 8""",THE TOUR Champ,1,17
84,85,,Carl Paulson,84,"58' 7""",Verizon,4,18
85,86,,Rick Hartmann,4,"58' 4""",Buick Classic,1,18
86,87,,Scott Hoch,71,"58' 1""",Advil Western,2,11
87,88,,Jesper Parnevik,85,"57' 8""",BellSouth Class,4,18
88,89,,Pete Jordan,78,"57' 7""",B.C. Open,2,12
89,90,,Carl Pettersson,10,"57' 4""",WGC-Am Express,1,15
90,91,,Joe Durant,87,"57' 3""",Invensys Las V,5,11
91,92,,Jeff Gallagher,37,"57' 2""",Reno-Tahoe Open,1,15
92,93,,Lee Janzen,101,"57' 1""",Bell Canadian O,4,16
93,94,,Carl Paulson,84,"56' 8""",WORLDCOM,1,15
94,94,,Tom Pernice Jr.,101,"56' 8""",Bell Canadian O,1,10
95,96,,Olin Browne,107,"56' 4""",SEI Pennsylvani,4,16
96,97,,Michael Campbell,31,"56' 3""",Bay Hill Invita,3,9
97,97,,Brett Quigley,93,"56' 3""",THE PLAYERS,1,14
98,99,,David Peoples,105,"56' 0""",Buick Challenge,2,5
99,100,,Bo Van Pelt,78,"55' 10""",Advil Western,2,12
100,101,,Dicky Pride,51,"55' 7""",Buick Open,4,18
101,101,,D.A. Weibring,25,"55' 7""",Texas Open,4,14
102,103,,Mathew Goggin,64,"55' 6""",Bell Canadian O,2,11
103,104,,John Huston,99,"55' 4""",SEI Pennsylvani,3,16
104,105,,Joe Durant,87,"55' 3""",Buick Challenge,1,7
105,106,,Kevin Sutherland,96,"55' 2""",Shell Houston,2,17
106,106,,Corey Pavin,78,"55' 2""",Buick Classic,4,17
107,106,,Kevin Sutherland,96,"55' 2""",Air Canada,3,11
108,109,,Mike Sposa,111,"55' 1""",Phoenix Open,1,13
109,110,,Lee Westwood,26,"54' 9""",Bay Hill Invita,2,9
110,111,,Brett Quigley,93,"54' 7""",Honda Classic,1,16
111,112,,Bubba Dickerson,30,"54' 5""",Memorial Tourna,1,15
112,113,,Ernie Els,68,"54' 4""",WGC-NEC Invit'l,2,12
113,114,,Jonathan Kaye,83,"54' 3""",Tucson Open,1,17
114,115,,Paul Gow,99,"54' 2""",Verizon,2,17
115,116,,David Morland IV,58,"54' 1""",Tampa Bay,1,12
116,117,,J.P. Hayes,78,"54' 0""",B.C. Open,3,17
117,117,,Matt Mocniak,4,"54' 0""",Buick Open,2,11
118,117,,Soren Hansen,16,"54' 0""",WGC-Am Express,2,18
119,120,,Chris DiMarco,111,"53' 10""",Mercedes Champ,4,18
120,120,,Brent Schwarzrock,28,"53' 10""",Compaq Classic,1,14
121,122,,Mike Weir,94,"53' 7""",Phoenix Open,2,17
122,123,,Scott McCarron,106,"53' 4""",BellSouth Class,3,9
123,124,,Brett Quigley,93,"53' 3""",MasterCard Colo,1,17
124,125,,Jesper Parnevik,85,"53' 2""",Phoenix Open,2,17
125,126,,Grant Waite,98,"53' 0""",Verizon,1,13
126,127,,Ed Fiori,14,"52' 11""",Bob Hope Chrysl,4,15
127,128,,Stan Utley,22,"52' 10""",Bell Canadian O,2,17
128,129,,David Gossett,95,"52' 9""",Disney Classic,2,15
129,130,,Mike Deuel,4,"52' 7""",B.C. Open,2,18
130,131,,Nick Price,69,"52' 6""",Genuity,4,18
131,132,,Brent Geiberger,95,"52' 5""",Buick Classic,2,12
132,132,,Bo Van Pelt,78,"52' 5""",B.C. Open,3,14
133,134,,Jeff Gove,89,"52' 4""",B.C. Open,3,13
134,135,,Brian Bateman,94,"52' 1""",FedEx St. Jude,4,13
135,136,,Michael Campbell,31,"51' 11""",WGC-NEC Invit'l,2,14
136,136,,Rory Sabbatini,69,"51' 11""",Invensys Las V,4,13
137,138,,Per-Ulrik Johansson,87,"51' 9""",Honda Classic,3,18
138,139,,Bob Heintz,68,"51' 8""",Sony Open,2,16
139,140,,Corey Pavin,78,"51' 4""",Texas Open,1,11
140,141,,Jerry Kelly,99,"51' 3""",THE PLAYERS,3,17
141,142,,Brett Quigley,93,"51' 2""",MasterCard Colo,1,16
142,143,,Dudley Hart,88,"51' 1""",BellSouth Class,2,13
143,143,,Brad Fabel,14,"51' 1""",FedEx St. Jude,2,15
144,145,,Grant Waite,98,"50' 11""",Compaq Classic,1,18
145,145,,Dicky Pride,51,"50' 11""",B.C. Open,3,17
146,147,,Tom Pernice Jr.,101,"50' 10""",Bob Hope Chrysl,5,15
147,147,,D.A. Weibring,25,"50' 10""",Texas Open,1,14
148,149,,Kent Jones,105,"50' 8""",John Deere Clas,4,15
149,150,,Joe Durant,87,"50' 7""",John Deere Clas,2,14
150,150,,David Duval,78,"50' 7""",Buick Challenge,1,7
151,152,,Jesper Parnevik,85,"50' 5""",BellSouth Class,2,4
152,153,,Per-Ulrik Johansson,87,"50' 4""",THE PLAYERS,2,13
153,154,,Craig Perks,91,"50' 2""",Buick Open,2,16
154,154,,Brad Faxon,93,"50' 2""",WGC-NEC Invit'l,1,10
155,154,,Blaine McCallister,75,"50' 2""",Tampa Bay,1,15
156,157,,Kris Maffet,2,"50' 1""",Honda Classic,1,13
157,157,,John Rollins,124,"50' 1""",Advil Western,2,12
158,159,,Chris Smith,103,"49' 11""",Tucson Open,4,17
159,159,,Brad Lardon,59,"49' 11""",B.C. Open,2,12
160,161,,Scott Simpson,61,"49' 10""",Advil Western,2,16
161,161,,Jay Williamson,91,"49' 10""",Texas Open,3,17
162,161,,"David Berganio, Jr.",80,"49' 10""",Buick Challenge,1,1
163,164,,Michael Campbell,31,"49' 9""",WGC-NEC Invit'l,1,18
164,164,,Mathew Goggin,64,"49' 9""",Bell Canadian O,2,16
165,164,,John Rollins,124,"49' 9""",THE TOUR Champ,2,18
166,167,,Arnold Palmer,7,"49' 8""",Bob Hope Chrysl,4,6
167,167,,Mark Calcavecchia,84,"49' 8""",Phoenix Open,1,15
168,167,,Billy Andrade,100,"49' 8""",WORLDCOM,4,17
169,167,,Guy Boros,28,"49' 8""",Kemper Ins Open,1,18
170,167,,Phillip Price,20,"49' 8""",WGC-NEC Invit'l,3,18
171,172,,Gabriel Hjertstedt,43,"49' 6""",Greater Milwauk,1,17
172,172,,Andrew Magee,91,"49' 6""",John Deere Clas,4,12
173,174,,Brandel Chamblee,85,"49' 4""",Buick Classic,1,16
174,175,,Carl Paulson,84,"49' 3""",THE PLAYERS,2,13
175,175,,Nick Price,69,"49' 3""",WGC-NEC Invit'l,2,12
176,175,,Woody Austin,102,"49' 3""",Buick Challenge,1,9
177,178,,Loren Roberts,93,"49' 2""",THE PLAYERS,1,15
178,178,,Jim Furyk,88,"49' 2""",THE TOUR Champ,3,8
179,180,,Bill Glasson,29,"49' 1""",B.C. Open,2,12
180,181,,Craig Barlow,62,"49' 0""",Buick Open,4,13
181,181,,Ken McDonald,2,"49' 0""",Texas Open,1,14
182,183,,John Cook,85,"48' 11""",Memorial Tourna,2,11
183,184,,Carlos Franco,107,"48' 10""",Air Canada,2,17
184,185,,Michael Long,71,"48' 8""",B.C. Open,1,10
185,186,,Paul Azinger,65,"48' 6""",Greater Greens,1,16
186,187,,Craig Perks,91,"48' 5""",Verizon,3,15
187,187,,Casey Martin,6,"48' 5""",Texas Open,1,12
188,187,,Michael Long,71,"48' 5""",Disney Classic,4,16
189,187,,David Duval,78,"48' 5""",Buick Challenge,4,7
190,191,,Billy Mayfair,99,"48' 2""",Compaq Classic,4,17
191,191,,Lee Janzen,101,"48' 2""",Buick Classic,1,17
192,191,,Iain Steel,4,"48' 2""",Bell Canadian O,4,15
193,194,,Rich Beem,99,"48' 1""",Sony Open,2,18
194,194,,Scott McCarron,106,"48' 1""",WGC-Am Express,2,16
195,194,,Chad Campbell,111,"48' 1""",Buick Challenge,2,9
196,197,,Tom Pernice Jr.,101,"48' 0""",Advil Western,4,10
197,197,,Shaun Micheel,100,"48' 0""",Air Canada,4,13
198,199,,Frank Nobilo,94,"47' 10""",Greater Greens,2,17
199,200,,Briny Baird,110,"47' 9""",Buick Open,2,16
200,201,,Luke Donald,106,"47' 8""",Greater Greens,2,17
201,201,,Chris Riley,104,"47' 8""",Compaq Classic,4,17
202,201,,Steve Lowery,98,"47' 8""",THE TOUR Champ,4,9
203,204,,Steve Allan,93,"47' 6""",Michelob Champ,1,10
204,205,,David Gossett,95,"47' 5""",Buick Challenge,2,8
205,206,,Paul Azinger,65,"47' 4""",Phoenix Open,1,13
206,206,,Scott Hoch,71,"47' 4""",Michelob Champ,4,18
207,208,,Willie Wood,44,"47' 1""",Canon Greater H,1,14
208,209,,John Senden,96,"47' 0""",Greater Greens,4,18
209,209,,Jerry Kelly,99,"47' 0""",WGC-NEC Invit'l,2,16
210,211,,Harrison Frazar,88,"46' 11""",Kemper Ins Open,1,17
211,211,,Craig Perks,91,"46' 11""",WGC-NEC Invit'l,3,12
212,213,,Craig Barlow,62,"46' 10""",Canon Greater H,3,16
213,213,,Peter Jacobsen,67,"46' 10""",John Deere Clas,3,12
214,213,,Brandel Chamblee,85,"46' 10""",Tampa Bay,4,15
215,216,,Steve Pate,64,"46' 9""",Canon Greater H,1,14
216,216,,Brad Lardon,59,"46' 9""",Buick Open,3,17
217,218,,Brent Geiberger,95,"46' 7""",Tucson Open,1,15
218,218,,Kenny Perry,98,"46' 7""",Advil Western,1,11
219,218,,Ted Tryba,22,"46' 7""",Buick Open,2,11
220,221,,Glen Day,107,"46' 6""",MasterCard Colo,2,13
221,222,,Sam Randolph,13,"46' 5""",Texas Open,1,17
222,223,,Steve Lowery,98,"46' 4""",Phoenix Open,1,13
223,223,,Rory Sabbatini,69,"46' 4""",Tampa Bay,3,13
224,225,,Fred Funk,106,"46' 3""",Phoenix Open,1,13
225,225,,Tripp Isenhour,68,"46' 3""",Texas Open,1,11
226,225,,Rich Beem,99,"46' 3""",Disney Classic,2,18
227,228,,John Riegger,88,"46' 2""",So. Farm Bureau,2,16
228,229,,Mike Weir,94,"46' 1""",Memorial Tourna,1,15
229,229,,Geoff Ogilvy,90,"46' 1""",Bell Canadian O,2,13
230,229,,Mark Carnevale,14,"46' 1""",Texas Open,1,10
231,232,,Jess Daley,76,"46' 0""",Greater Milwauk,1,10
232,232,,Phil Mickelson,97,"46' 0""",WGC-NEC Invit'l,1,15
233,234,,Jeff Sluman,118,"45' 11""",Bob Hope Chrysl,2,17
234,234,,Geoff Ogilvy,90,"45' 11""",Advil Western,3,14
235,236,,Grant Waite,98,"45' 10""",Texas Open,2,10
236,236,,Dennis Paulson,89,"45' 10""",Disney Classic,2,18
237,238,,"David Berganio, Jr.",80,"45' 9""",Tucson Open,2,17
238,238,,Jay Williamson,91,"45' 9""",Tucson Open,2,17
239,238,,Mike Donald,6,"45' 9""",B.C. Open,1,12
240,241,,Pete Jordan,78,"45' 8""",Phoenix Open,1,15
241,241,,Dan Pohl,8,"45' 8""",B.C. Open,1,10
242,241,,José María Olazábal,71,"45' 8""",WGC-NEC Invit'l,1,11
243,241,,Jay Don Blake,107,"45' 8""",Disney Classic,4,18
244,245,,Tom Pernice Jr.,101,"45' 7""",Shell Houston,2,14
245,245,,Jay Williamson,91,"45' 7""",Buick Challenge,2,9
246,247,,Lee Porter,91,"45' 6""",WORLDCOM,1,13
247,247,,Bradley Hughes,60,"45' 6""",Advil Western,4,15
248,249,,Brian Gay,117,"45' 5""",FedEx St. Jude,4,14
249,249,,Richard Zokol,53,"45' 5""",Greater Milwauk,3,10
250,251,,Pete Jordan,78,"45' 4""",Buick Open,2,11
251,252,,Per-Ulrik Johansson,87,"45' 3""",Honda Classic,2,16
252,252,,Craig Perks,91,"45' 3""",THE PLAYERS,3,17
253,252,,Robert Allenby,96,"45' 3""",Memorial Tourna,1,16
254,252,,Bradley Hughes,60,"45' 3""",Advil Western,3,18
255,252,,Kevin Johnson,4,"45' 3""",B.C. Open,4,11
256,252,,Kenneth Staton,104,"45' 3""",Buick Challenge,2,3
257,258,,Wayne Grady,12,"45' 2""",Kemper Ins Open,2,17
258,258,,K.J. Choi,93,"45' 2""",WGC-NEC Invit'l,3,17
259,260,,John Riegger,88,"45' 1""",Honda Classic,1,18
260,260,,Joey Sindelar,104,"45' 1""",THE PLAYERS,1,18
261,260,,Rich Beem,99,"45' 1""",BellSouth Class,4,13
262,260,,Dennis Paulson,89,"45' 1""",Kemper Ins Open,3,18
263,264,,James Driscoll,21,"45' 0""",Greater Milwauk,1,15
264,265,,Billy Andrade,100,"44' 11""",BellSouth Class,2,8
265,265,,Paul Claxton,83,"44' 11""",Reno-Tahoe Open,1,15
266,267,,Mike Weir,94,"44' 10""",Invensys Las V,4,12
267,268,,Scott Watkins,4,"44' 9""",Tucson Open,4,17
268,268,,Dennis Paulson,89,"44' 9""",Greater Milwauk,1,11
269,268,,Greg Chalmers,94,"44' 9""",Greater Milwauk,2,13
270,271,,Greg Kraft,86,"44' 7""",Bob Hope Chrysl,5,18
271,271,,Michael Long,71,"44' 7""",Shell Houston,2,17
272,271,,Robert Allenby,96,"44' 7""",WGC-NEC Invit'l,4,17
273,274,,Phil Mickelson,97,"44' 6""",Buick Challenge,4,11
274,275,,Rory Sabbatini,69,"44' 5""",Phoenix Open,1,17
275,275,,Bob Tway,103,"44' 5""",Memorial Tourna,4,18
276,275,,Craig Barlow,62,"44' 5""",Tampa Bay,3,14
277,278,,Cameron Beckman,87,"44' 4""",Advil Western,2,14
278,278,,Greg Chalmers,94,"44' 4""",Greater Milwauk,3,16
279,278,,Tom Pernice Jr.,101,"44' 4""",Reno-Tahoe Open,2,16
280,278,,Tim Petrovic,92,"44' 4""",Buick Challenge,2,16
281,282,,Brett Wetterich,89,"44' 3""",Sony Open,2,18
282,282,,Dudley Hart,88,"44' 3""",Buick Classic,2,16
283,282,,Tray Sones,2,"44' 3""",B.C. Open,1,14
284,282,,David Morland IV,58,"44' 3""",Texas Open,4,11
285,286,,Craig Perks,91,"44' 2""",THE PLAYERS,1,14
286,286,,Geoff Ogilvy,90,"44' 2""",Compaq Classic,3,16
287,286,,Mark Mielke,2,"44' 2""",Buick Classic,1,17
288,286,,Brandel Chamblee,85,"44' 2""",Greater Milwauk,2,11
289,286,,Mike Heinen,49,"44' 2""",Tampa Bay,1,14
290,286,,Rich Beem,99,"44' 2""",Texas Open,2,12
291,292,,J.P. Hayes,78,"44' 1""",B.C. Open,2,14
292,292,,Greg Kraft,86,"44' 1""",John Deere Clas,3,11
293,294,,Olin Browne,107,"44' 0""",Buick Classic,2,13
294,295,,Shigeki Maruyama,87,"43' 11""",Shell Houston,2,18
295,295,,José Coceres,51,"43' 11""",WGC-NEC Invit'l,1,11
296,297,,Glen Day,107,"43' 9""",MasterCard Colo,2,16
297,298,,Olin Browne,107,"43' 8""",Air Canada,3,17
298,298,,Tom Scherrer,98,"43' 8""",Bell Canadian O,2,11
299,300,,Chris Riley,104,"43' 7""",Shell Houston,1,5
300,300,,Bob Estes,93,"43' 7""",Advil Western,1,18
301,300,,K.J. Choi,93,"43' 7""",Tampa Bay,2,10
302,300,,Chad Campbell,111,"43' 7""",Texas Open,2,16
303,300,,Tom Pernice Jr.,101,"43' 7""",So. Farm Bureau,3,12
304,305,,Stewart Cink,92,"43' 6""",THE PLAYERS,1,16
305,305,,Cameron Beckman,87,"43' 6""",Memorial Tourna,1,16
306,307,,Mark Calcavecchia,84,"43' 5""",Bay Hill Invita,4,17
307,307,,Carl Paulson,84,"43' 5""",Buick Open,4,11
308,309,,Tom Kite,14,"43' 4""",THE PLAYERS,2,11
309,309,,Justin Leonard,97,"43' 4""",Invensys Las V,5,17
310,309,,John Riegger,88,"43' 4""",Buick Challenge,2,10
311,312,,Joey Sindelar,104,"43' 3""",Greater Milwauk,4,14
312,312,,Jim McGovern,46,"43' 3""",Greater Milwauk,2,17
313,312,,Lee Janzen,101,"43' 3""",Buick Open,2,16
314,312,,Ricardo Gonzalez,13,"43' 3""",WGC-NEC Invit'l,1,11
315,312,,Mike Sposa,111,"43' 3""",Michelob Champ,2,14
316,317,,Craig Stadler,72,"43' 2""",Phoenix Open,2,17
317,318,,Ian Leggatt,97,"43' 1""",Genuity,1,11
318,318,,Heath Slocum,96,"43' 1""",Memorial Tourna,1,14
319,318,,Paul Claxton,83,"43' 1""",B.C. Open,4,14
320,318,,Bo Van Pelt,78,"43' 1""",Texas Open,3,14
321,322,,Steve Lowery,98,"43' 0""",Air Canada,2,12
322,322,,Mathew Goggin,64,"43' 0""",Texas Open,1,17
323,324,,Steve Lowery,98,"42' 11""",WGC-Am Express,3,15
324,325,,Tripp Isenhour,68,"42' 10""",Bay Hill Invita,2,16
325,325,,Glen Hnatiuk,95,"42' 10""",THE PLAYERS,2,15
326,325,,Grant Waite,98,"42' 10""",Greater Milwauk,1,17
327,325,,Michael Allen,76,"42' 10""",B.C. Open,4,12
328,325,,Jay Don Blake,107,"42' 10""",Bell Canadian O,1,13
329,325,,Kevin Sutherland,96,"42' 10""",WGC-Am Express,4,14
330,325,,Michael Allen,76,"42' 10""",Texas Open,1,10
331,325,,David Peoples,105,"42' 10""",Buick Challenge,1,16
332,325,,Matt Gogel,79,"42' 10""",Buick Challenge,1,5
333,334,,Joe Durant,87,"42' 9""",Bob Hope Chrysl,4,11
334,334,,Lee Janzen,101,"42' 9""",Verizon,2,13
335,334,,Fred Funk,106,"42' 9""",Air Canada,2,16
336,337,,Tommy Tolles,64,"42' 8""",B.C. Open,3,15
337,338,,Ben Crane,91,"42' 7""",Bob Hope Chrysl,5,15
338,338,,Matt Peterson,80,"42' 7""",Greater Milwauk,2,13
339,340,,Sandy Lyle,25,"42' 6""",Bob Hope Chrysl,3,15
340,340,,Tom Scherrer,98,"42' 6""",Genuity,3,13
341,340,,Shigeki Maruyama,87,"42' 6""",Greater Milwauk,3,14
342,343,,K.J. Choi,93,"42' 5""",Sony Open,2,17
343,343,,Shigeki Maruyama,87,"42' 5""",Verizon,2,17
344,345,,Brian Gay,117,"42' 4""",Shell Houston,2,13
345,345,,Jay Don Blake,107,"42' 4""",Buick Challenge,1,5
346,347,,Ty Tryon,14,"42' 3""",Tampa Bay,4,15
347,348,,Billy Andrade,100,"42' 2""",Genuity,1,13
348,348,,Robert Gamez,69,"42' 2""",Greater Greens,1,16
349,348,,Per-Ulrik Johansson,87,"42' 2""",Verizon,3,15
350,348,,Notah Begay III,76,"42' 2""",Bell Canadian O,3,17
351,352,,Jim Furyk,88,"42' 1""",WORLDCOM,1,13
352,352,,José Coceres,51,"42' 1""",WORLDCOM,2,14
353,352,,John Rollins,124,"42' 1""",Reno-Tahoe Open,1,13
354,352,,Jay Haas,83,"42' 1""",Tampa Bay,1,11
355,352,,Sergio Garcia,79,"42' 1""",THE TOUR Champ,4,18
356,357,,Stuart Appleby,97,"42' 0""",BellSouth Class,2,9
357,357,,Robert Gamez,69,"42' 0""",Greater Greens,2,17
358,357,,Jack Renner,2,"42' 0""",B.C. Open,2,10
359,357,,Mark O'Meara,68,"42' 0""",Buick Open,3,15
360,357,,Jonathan Kaye,83,"42' 0""",Air Canada,2,17
361,357,,Deane Pappas,90,"42' 0""",Bell Canadian O,1,15
362,363,,Hidemichi Tanaka,104,"41' 11""",Tucson Open,2,16
363,363,,Brad Lardon,59,"41' 11""",Greater Greens,2,16
364,363,,Scott Simpson,61,"41' 11""",Verizon,3,14
365,363,,Gabriel Hjertstedt,43,"41' 11""",Texas Open,3,16
366,363,,Jason Hill,59,"41' 11""",Michelob Champ,4,18
367,368,,David Peoples,105,"41' 10""",Verizon,4,18
368,369,,Greg Chalmers,94,"41' 9""",Greater Milwauk,2,16
369,370,,Davis Love III,92,"41' 8""",Honda Classic,2,18
370,370,,David Edwards,33,"41' 8""",Bell Canadian O,4,14
371,370,,Stephen Gangluff,75,"41' 8""",Tampa Bay,4,10
372,370,,Jay Haas,83,"41' 8""",Disney Classic,3,17
373,374,,Brian Bateman,94,"41' 7""",Sony Open,2,16
374,374,,Bo Van Pelt,78,"41' 7""",Sony Open,2,18
375,374,,J.L. Lewis,98,"41' 7""",Honda Classic,3,18
376,374,,Chris Smith,103,"41' 7""",WORLDCOM,2,14
377,374,,Ronnie Black,28,"41' 7""",Tampa Bay,1,13
378,374,,Matt Peterson,80,"41' 7""",Texas Open,2,13
379,374,,Jay Williamson,91,"41' 7""",Disney Classic,2,17
380,381,,Bob Estes,93,"41' 6""",Phoenix Open,1,17
381,381,,Danny Ellis,44,"41' 6""",Genuity,1,13
382,381,,Jerry Kelly,99,"41' 6""",Bay Hill Invita,3,9
383,381,,Per-Ulrik Johansson,87,"41' 6""",Bay Hill Invita,1,6
384,381,,Jeff Gallagher,37,"41' 6""",Kemper Ins Open,1,15
385,381,,Steve Allan,93,"41' 6""",So. Farm Bureau,2,12
386,387,,Mike Gill,2,"41' 5""",BellSouth Class,2,8
387,387,,"Jim Gallagher, Jr.",45,"41' 5""",Buick Open,2,13
388,387,,Tripp Isenhour,68,"41' 5""",Bell Canadian O,2,18
389,387,,Per-Ulrik Johansson,87,"41' 5""",Texas Open,1,14
390,391,,Jonathan Byrd,96,"41' 4""",John Deere Clas,3,16
391,391,,Jeff Sluman,118,"41' 4""",Buick Challenge,4,16
392,393,,Craig Barlow,62,"41' 3""",Shell Houston,2,13
393,393,,Robin Freeman,79,"41' 3""",Canon Greater H,3,14
394,393,,Brandt Jobe,94,"41' 3""",Greater Milwauk,4,18
395,393,,Matt Kuchar,82,"41' 3""",Disney Classic,4,17
396,393,,Curtis Strange,26,"41' 3""",Buick Challenge,3,10
397,398,,Tim Herron,102,"41' 2""",Shell Houston,2,18
398,398,,José María Olazábal,71,"41' 2""",Buick Open,1,18
399,398,,Neal Lancaster,101,"41' 2""",Air Canada,2,18
400,398,,Scott Verplank,93,"41' 2""",Buick Challenge,1,15
401,402,,Billy Andrade,100,"41' 1""",Bay Hill Invita,2,9
402,402,,Mike Sposa,111,"41' 1""",Buick Challenge,2,17
403,402,,Jonathan Byrd,96,"41' 1""",Buick Challenge,4,15
404,405,,Brandel Chamblee,85,"41' 0""",Advil Western,2,15
405,405,,Robert Damron,85,"41' 0""",Advil Western,1,13
406,405,,Steve Scott,10,"41' 0""",Bell Canadian O,1,14
407,408,,Brandel Chamblee,85,"40' 11""",THE PLAYERS,1,14
408,408,,Steve Jones,71,"40' 11""",John Deere Clas,3,15
409,408,,Joel Edwards,101,"40' 11""",Tampa Bay,1,10
410,408,,Ken Duke,12,"40' 11""",Tampa Bay,2,18
411,412,,Luke Donald,106,"40' 10""",Shell Houston,2,5
412,412,,Luke Donald,106,"40' 10""",Greater Greens,1,16
413,412,,Chris Riley,104,"40' 10""",Advil Western,3,12
414,415,,Per-Ulrik Johansson,87,"40' 9""",Bay Hill Invita,4,16
415,415,,Billy Andrade,100,"40' 9""",Memorial Tourna,4,16
416,415,,Gabriel Hjertstedt,43,"40' 9""",FedEx St. Jude,1,14
417,415,,Jay Haas,83,"40' 9""",Reno-Tahoe Open,2,15
418,415,,Glen Day,107,"40' 9""",Buick Challenge,2,4
419,420,,Brett Quigley,93,"40' 8""",THE PLAYERS,1,17
420,420,,Brett Quigley,93,"40' 8""",Kemper Ins Open,1,13
421,422,,Stephen Gangluff,75,"40' 7""",Tucson Open,2,17
422,422,,David Toms,106,"40' 7""",MasterCard Colo,4,13
423,422,,Pat Bates,94,"40' 7""",John Deere Clas,2,17
424,422,,Michael Campbell,31,"40' 7""",WGC-NEC Invit'l,2,16
425,422,,Tom Scherrer,98,"40' 7""",Air Canada,4,18
426,422,,Notah Begay III,76,"40' 7""",Texas Open,2,16
427,428,,Brenden Pappas,62,"40' 6""",Sony Open,2,18
428,428,,Peter Lonard,93,"40' 6""",Memorial Tourna,1,15
429,428,,Cameron Beckman,87,"40' 6""",Buick Classic,4,17
430,431,,John Huston,99,"40' 4""",BellSouth Class,4,4
431,431,,Steve Lowery,98,"40' 4""",MasterCard Colo,4,13
432,431,,Brad Fabel,14,"40' 4""",FedEx St. Jude,1,17
433,431,,Keith Clearwater,12,"40' 4""",Greater Milwauk,2,17
434,431,,Mike Springer,36,"40' 4""",Air Canada,4,13
435,431,,Craig Barlow,62,"40' 4""",Air Canada,4,15
436,431,,Eduardo Herrera,59,"40' 4""",Texas Open,4,18
437,438,,Brian Bateman,94,"40' 3""",SEI Pennsylvani,3,10
438,438,,Paul Gow,99,"40' 3""",Texas Open,4,18
439,438,,Olin Browne,107,"40' 3""",Invensys Las V,2,17
440,441,,Geoff Ogilvy,90,"40' 2""",WORLDCOM,2,18
441,441,,Notah Begay III,76,"40' 2""",B.C. Open,4,11
442,441,,Harrison Frazar,88,"40' 2""",Texas Open,1,10
443,441,,Chris DiMarco,111,"40' 2""",Disney Classic,4,18
444,445,,Russ Cochran,68,"40' 1""",Greater Milwauk,4,14
445,446,,Paul Casey,28,"40' 0""",Phoenix Open,1,13
446,446,,Tom Byrum,77,"40' 0""",Greater Greens,3,18
447,446,,Brenden Pappas,62,"40' 0""",Kemper Ins Open,2,13
448,446,,Jay Don Blake,107,"40' 0""",Advil Western,2,13
449,446,,Briny Baird,110,"40' 0""",John Deere Clas,2,15
450,446,,Tom Byrum,77,"40' 0""",Buick Open,1,12
451,452,,Rich Beem,99,"39' 11""",Bob Hope Chrysl,3,17
452,452,,Hal Sutton,74,"39' 11""",BellSouth Class,1,4
453,452,,Brian Watts,58,"39' 11""",Greater Milwauk,2,17
454,452,,David Bolton,2,"39' 11""",Air Canada,1,18
455,452,,Dennis Paulson,89,"39' 11""",Bell Canadian O,1,11
456,457,,Phil Mickelson,97,"39' 10""",Bob Hope Chrysl,3,18
457,457,,Cameron Beckman,87,"39' 10""",Verizon,4,18
458,457,,Mike Springer,36,"39' 10""",Greater Milwauk,3,15
459,457,,Sergio Garcia,79,"39' 10""",WGC-NEC Invit'l,4,12
460,457,,Jonathan Byrd,96,"39' 10""",Michelob Champ,4,14
461,462,,Brad Lardon,59,"39' 9""",BellSouth Class,2,13
462,462,,Joe Durant,87,"39' 9""",Compaq Classic,1,18
463,462,,Paul Stankowski,100,"39' 9""",So. Farm Bureau,1,13
464,465,,Kent Jones,105,"39' 8""",Shell Houston,3,18
465,465,,Chris Smith,103,"39' 8""",SEI Pennsylvani,2,13
466,465,,Mike Heinen,49,"39' 8""",SEI Pennsylvani,1,16
467,468,,Greg Chalmers,94,"39' 7""",B.C. Open,3,15
468,468,,Jerry Kelly,99,"39' 7""",Buick Open,2,17
469,468,,Charles Howell III,118,"39' 7""",SEI Pennsylvani,1,16
470,471,,Phillip Price,20,"39' 6""",Bob Hope Chrysl,3,18
471,471,,Tom Scherrer,98,"39' 6""",Bell Canadian O,2,18
472,473,,Padraig Harrington,33,"39' 5""",THE PLAYERS,2,17
473,473,,Justin Leonard,97,"39' 5""",Memorial Tourna,1,17
474,473,,Kent Jones,105,"39' 5""",Kemper Ins Open,1,17
475,473,,Chad Campbell,111,"39' 5""",FedEx St. Jude,2,17
476,477,,Mike Weir,94,"39' 4""",THE PLAYERS,1,13
477,477,,Brian Henninger,66,"39' 4""",Verizon,3,18
478,477,,Carl Paulson,84,"39' 4""",FedEx St. Jude,2,13
479,477,,Jay Williamson,91,"39' 4""",So. Farm Bureau,1,13
480,477,,Justin Leonard,97,"39' 4""",THE TOUR Champ,3,14
481,482,,Craig Stadler,72,"39' 3""",B.C. Open,3,13
482,482,,Jonathan Byrd,96,"39' 3""",Buick Challenge,4,13
483,482,,Jeff Sluman,118,"39' 3""",THE TOUR Champ,3,13
484,485,,Cody Freeman,2,"39' 2""",FedEx St. Jude,1,17
485,485,,Brent Geiberger,95,"39' 2""",Advil Western,2,17
486,487,,Thomas Bjørn,32,"39' 1""",THE PLAYERS,1,12
487,487,,Chip Beck,6,"39' 1""",Advil Western,1,14
488,487,,Tommy Armour III,82,"39' 1""",Tampa Bay,2,17
489,490,,James Driscoll,21,"39' 0""",Canon Greater H,1,18
490,490,,Jerry Smith,91,"39' 0""",Greater Milwauk,1,13
491,490,,Chris Smith,103,"39' 0""",Texas Open,3,17
492,493,,Jeff Gove,89,"38' 11""",Buick Classic,1,15
493,493,,Tim Herron,102,"38' 11""",Greater Milwauk,3,18
494,493,,Sam Randolph,13,"38' 11""",SEI Pennsylvani,2,17
495,496,,Charles Howell III,118,"38' 10""",John Deere Clas,3,13
496,496,,Steve Lowery,98,"38' 10""",WGC-NEC Invit'l,4,12
497,496,,Jeff Sluman,118,"38' 10""",SEI Pennsylvani,3,11
498,496,,Joey Sindelar,104,"38' 10""",Buick Challenge,2,5
499,500,,Ed Fiori,14,"38' 9""",Bob Hope Chrysl,4,11
500,500,,Joel Edwards,101,"38' 9""",THE PLAYERS,1,12
501,500,,Kenny Perry,98,"38' 9""",Disney Classic,1,10
502,500,,Lee Porter,91,"38' 9""",Disney Classic,2,16
503,500,,Carlos Franco,107,"38' 9""",Buick Challenge,4,11
504,500,,Phil Mickelson,97,"38' 9""",THE TOUR Champ,4,6
505,506,,Ben Crane,91,"38' 8""",Compaq Classic,1,15
506,506,,Paul Stankowski,100,"38' 8""",John Deere Clas,4,11
507,506,,Loren Roberts,93,"38' 8""",SEI Pennsylvani,1,16
508,509,,Craig Perks,91,"38' 7""",MasterCard Colo,2,18
509,509,,Bart Bryant,69,"38' 7""",Tampa Bay,1,17
510,511,,Fred Couples,64,"38' 6""",Phoenix Open,1,13
511,511,,Chris Smith,103,"38' 6""",Tucson Open,3,17
512,511,,Tom Lehman,78,"38' 6""",Bay Hill Invita,1,16
513,511,,David Toms,106,"38' 6""",Compaq Classic,1,15
514,511,,Jay Don Blake,107,"38' 6""",Buick Classic,1,17
515,511,,Jim Furyk,88,"38' 6""",THE TOUR Champ,1,11
516,517,,Richard Zokol,53,"38' 5""",Sony Open,2,17
517,517,,David Peoples,105,"38' 5""",Shell Houston,3,16
518,517,,Carlos Franco,107,"38' 5""",Advil Western,4,13
519,517,,Peter Jacobsen,67,"38' 5""",John Deere Clas,2,15
520,517,,Steve Jones,71,"38' 5""",John Deere Clas,3,16
521,517,,Matt Peterson,80,"38' 5""",Texas Open,2,15
522,523,,Shaun Micheel,100,"38' 4""",Compaq Classic,3,16
523,523,,Steve Allan,93,"38' 4""",Compaq Classic,1,14
524,523,,Duffy Waldorf,90,"38' 4""",John Deere Clas,3,16
525,526,,Tom Scherrer,98,"38' 3""",THE PLAYERS,1,15
526,526,,Peter Lonard,93,"38' 3""",WGC-NEC Invit'l,1,12
527,526,,Ian Leggatt,97,"38' 3""",Buick Challenge,1,17
528,529,,Mark O'Meara,68,"38' 2""",Bay Hill Invita,2,15
529,529,,Shigeki Maruyama,87,"38' 2""",THE PLAYERS,3,14
530,529,,Woody Austin,102,"38' 2""",Advil Western,2,11
531,532,,Rich Beem,99,"38' 0""",Genuity,2,11
532,532,,Bryce Molder,65,"38' 0""",Air Canada,4,15
533,534,,Fred Wadsworth,38,"37' 11""",Greater Milwauk,1,17
534,534,,J.P. Hayes,78,"37' 11""",John Deere Clas,2,15
535,536,,Carl Paulson,84,"37' 10""",THE PLAYERS,3,12
536,536,,Lee Janzen,101,"37' 10""",MasterCard Colo,1,17
537,538,,Michael Muehr,73,"37' 9""",Sony Open,2,18
538,538,,Neal Lancaster,101,"37' 9""",Bell Canadian O,1,13
539,538,,Bo Van Pelt,78,"37' 9""",Bell Canadian O,3,13
540,538,,Spike McRoy,69,"37' 9""",So. Farm Bureau,3,17
541,542,,Scott Hoch,71,"37' 8""",THE PLAYERS,2,17
542,542,,"Jim Gallagher, Jr.",45,"37' 8""",John Deere Clas,2,14
543,542,,Paul Claxton,83,"37' 8""",SEI Pennsylvani,1,15
544,542,,Woody Austin,102,"37' 8""",Texas Open,4,16
545,542,,Ian Leggatt,97,"37' 8""",Michelob Champ,3,17
546,547,,Stewart Cink,92,"37' 7""",THE PLAYERS,2,12
547,547,,Chris Smith,103,"37' 7""",Greater Milwauk,2,10
548,547,,Eduardo Herrera,59,"37' 7""",Tampa Bay,1,10
549,547,,John Huston,99,"37' 7""",Buick Challenge,2,3
550,551,,Rich Beem,99,"37' 6""",THE PLAYERS,2,17
551,551,,Neal Lancaster,101,"37' 6""",Compaq Classic,1,14
552,551,,Jess Daley,76,"37' 6""",Buick Classic,2,10
553,551,,Stephen Gangluff,75,"37' 6""",Air Canada,1,12
554,551,,J.P. Hayes,78,"37' 6""",Michelob Champ,4,11
555,556,,Andrew Magee,91,"37' 5""",Bob Hope Chrysl,2,17
556,556,,Carl Paulson,84,"37' 5""",THE PLAYERS,3,15
557,556,,Billy Andrade,100,"37' 5""",BellSouth Class,1,13
558,556,,Grant Waite,98,"37' 5""",Kemper Ins Open,1,18
559,556,,Glen Hnatiuk,95,"37' 5""",Advil Western,2,14
560,556,,Tripp Isenhour,68,"37' 5""",Texas Open,2,15
561,562,,David Peoples,105,"37' 4""",Bob Hope Chrysl,5,11
562,562,,Brett Quigley,93,"37' 4""",Genuity,2,13
563,562,,Rocco Mediate,79,"37' 4""",Memorial Tourna,2,17
564,562,,Rod Pampling,98,"37' 4""",Memorial Tourna,1,17
565,562,,Skip Kendall,103,"37' 4""",Advil Western,1,11
566,562,,Jesper Parnevik,85,"37' 4""",WGC-NEC Invit'l,4,13
567,562,,Jonathan Kaye,83,"37' 4""",Reno-Tahoe Open,2,15
568,562,,Bo Van Pelt,78,"37' 4""",SEI Pennsylvani,4,14
569,562,,Stephen Gangluff,75,"37' 4""",Tampa Bay,3,17
570,562,,Brett Quigley,93,"37' 4""",Michelob Champ,3,16
571,562,,Matt Gogel,79,"37' 4""",Buick Challenge,4,11
572,573,,Kenneth Staton,104,"37' 3""",Phoenix Open,1,15
573,573,,David Gossett,95,"37' 3""",Phoenix Open,2,17
574,573,,Garrett Willis,80,"37' 3""",THE PLAYERS,1,14
575,573,,Tim Petrovic,92,"37' 3""",John Deere Clas,2,17
576,573,,Per-Ulrik Johansson,87,"37' 3""",Buick Challenge,2,5
577,578,,Brent Geiberger,95,"37' 2""",Greater Milwauk,1,18
578,578,,Ángel Cabrera,47,"37' 2""",WGC-Am Express,1,14
579,580,,Len Mattiace,106,"37' 1""",Bay Hill Invita,3,17
580,580,,Charles Howell III,118,"37' 1""",Advil Western,1,14
581,580,,Garrett Willis,80,"37' 1""",Texas Open,4,18
582,580,,Tripp Isenhour,68,"37' 1""",So. Farm Bureau,1,16
583,584,,David Morland IV,58,"37' 0""",Kemper Ins Open,1,17
584,585,,Corey Pavin,78,"36' 11""",Verizon,1,14
585,585,,James Driscoll,21,"36' 11""",Greater Milwauk,1,11
586,585,,Darren Clarke,35,"36' 11""",Air Canada,4,15
587,585,,Garrett Willis,80,"36' 11""",Tampa Bay,3,13
588,589,,Olin Browne,107,"36' 10""",Bell Canadian O,2,15
589,589,,Scott Dunlap,74,"36' 10""",Buick Challenge,1,15
590,591,,David Peoples,105,"36' 9""",Bob Hope Chrysl,5,15
591,591,,Esteban Toledo,106,"36' 9""",Canon Greater H,2,18
592,591,,Mike Springer,36,"36' 9""",SEI Pennsylvani,2,17
593,594,,John Senden,96,"36' 8""",Bob Hope Chrysl,5,15
594,594,,Brad Lardon,59,"36' 8""",BellSouth Class,1,13
595,594,,Corey Pavin,78,"36' 8""",MasterCard Colo,1,15
596,594,,Billy Andrade,100,"36' 8""",Canon Greater H,1,16
597,594,,Mike Springer,36,"36' 8""",Greater Milwauk,4,16
598,594,,Barry Cheesman,4,"36' 8""",B.C. Open,3,14
599,594,,David Morland IV,58,"36' 8""",Buick Open,1,16
600,594,,Michael Long,71,"36' 8""",Air Canada,2,18
601,594,,Carlos Franco,107,"36' 8""",Bell Canadian O,3,15
602,594,,Justin Leonard,97,"36' 8""",WGC-Am Express,2,18
603,594,,Lee Janzen,101,"36' 8""",Buick Challenge,2,17
604,594,,Notah Begay III,76,"36' 8""",Buick Challenge,2,2
605,594,,Len Mattiace,106,"36' 8""",THE TOUR Champ,1,14
606,607,,Len Mattiace,106,"36' 7""",Sony Open,2,18
607,607,,Jay Haas,83,"36' 7""",THE PLAYERS,1,14
608,607,,Paul Gow,99,"36' 7""",THE PLAYERS,1,14
609,607,,Brian Gay,117,"36' 7""",Greater Milwauk,2,13
610,607,,Dan Forsman,83,"36' 7""",So. Farm Bureau,3,13
611,612,,Kenny Perry,98,"36' 6""",Mercedes Champ,4,18
612,612,,John Rollins,124,"36' 6""",Bob Hope Chrysl,2,18
613,612,,Craig Parry,69,"36' 6""",WGC-NEC Invit'l,2,12
614,615,,John Huston,99,"36' 5""",BellSouth Class,1,18
615,615,,Robert Damron,85,"36' 5""",John Deere Clas,2,12
616,615,,Olin Browne,107,"36' 5""",Buick Open,1,13
617,615,,"Jim Gallagher, Jr.",45,"36' 5""",Bell Canadian O,4,14
618,615,,Charles Howell III,118,"36' 5""",Bell Canadian O,3,16
619,620,,Ben Crane,91,"36' 4""",Bob Hope Chrysl,2,17
620,620,,Jonathan Kaye,83,"36' 4""",Tucson Open,2,16
621,620,,John Cook,85,"36' 4""",THE PLAYERS,2,16
622,620,,Jay Haas,83,"36' 4""",THE PLAYERS,1,18
623,620,,Stuart Appleby,97,"36' 4""",THE PLAYERS,4,17
624,620,,Bob Tway,103,"36' 4""",Buick Classic,3,11
625,620,,Kevin Sutherland,96,"36' 4""",Canon Greater H,1,15
626,620,,Peter Jacobsen,67,"36' 4""",Buick Open,2,13
627,628,,Dennis Paulson,89,"36' 3""",Tucson Open,2,17
628,628,,Chad Campbell,111,"36' 3""",Compaq Classic,2,14
629,628,,Brett Quigley,93,"36' 3""",Memorial Tourna,3,16
630,628,,Olin Browne,107,"36' 3""",Buick Challenge,4,1
631,632,,Dave Barr,18,"36' 2""",B.C. Open,3,14
632,632,,Tommy Tolles,64,"36' 2""",SEI Pennsylvani,3,14
633,634,,Scott Simpson,61,"36' 1""",Verizon,4,17
634,634,,Joel Edwards,101,"36' 1""",Memorial Tourna,2,15
635,634,,Steve Pate,64,"36' 1""",FedEx St. Jude,1,15
636,634,,Pat Perez,89,"36' 1""",Texas Open,3,11
637,634,,Scott McCarron,106,"36' 1""",Invensys Las V,5,15
638,639,,Notah Begay III,76,"36' 0""",Texas Open,2,13
639,639,,Steve Jones,71,"36' 0""",Buick Challenge,1,15
640,641,,Kevin Sutherland,96,"35' 11""",FedEx St. Jude,3,18
641,642,,Deane Pappas,90,"35' 10""",Greater Milwauk,1,12
642,642,,Edward Fryatt,94,"35' 10""",B.C. Open,4,11
643,642,,Jeff Gove,89,"35' 10""",Buick Open,1,14
644,642,,Scott Dunlap,74,"35' 10""",Tampa Bay,1,10
645,646,,Jay Williamson,91,"35' 9""",Shell Houston,2,14
646,646,,Chad Campbell,111,"35' 9""",Buick Open,2,16
647,646,,Jonathan Byrd,96,"35' 9""",Michelob Champ,3,18
648,646,,Lee Janzen,101,"35' 9""",Buick Challenge,1,16
649,646,,Jess Daley,76,"35' 9""",Buick Challenge,1,7
650,646,,Brad Faxon,93,"35' 9""",So. Farm Bureau,1,16
651,652,,Glen Hnatiuk,95,"35' 8""",Bob Hope Chrysl,2,18
652,652,,Paul Azinger,65,"35' 8""",THE PLAYERS,2,15
653,652,,Blaine McCallister,75,"35' 8""",Greater Greens,1,18
654,652,,Jonathan Byrd,96,"35' 8""",John Deere Clas,4,11
655,652,,Michael Hyland,2,"35' 8""",SEI Pennsylvani,1,16
656,652,,Donnie Hammond,60,"35' 8""",Tampa Bay,1,15
657,652,,Greg Sonnier,2,"35' 8""",Texas Open,2,13
658,659,,Robert Allenby,96,"35' 7""",Buick Classic,1,16
659,659,,Paul Azinger,65,"35' 7""",FedEx St. Jude,1,14
660,659,,Stephen Gangluff,75,"35' 7""",Reno-Tahoe Open,2,15
661,659,,Ian Leggatt,97,"35' 7""",Air Canada,3,14
662,659,,Jeff Quinney,14,"35' 7""",Bell Canadian O,1,13
663,659,,Woody Austin,102,"35' 7""",Tampa Bay,3,15
664,665,,Justin Leonard,97,"35' 6""",Kemper Ins Open,3,13
665,665,,Shaun Micheel,100,"35' 6""",FedEx St. Jude,4,18
666,665,,Charles Howell III,118,"35' 6""",John Deere Clas,2,13
667,665,,Fred Funk,106,"35' 6""",Buick Challenge,1,16
668,665,,Chris Smith,103,"35' 6""",Buick Challenge,1,14
669,670,,Billy Andrade,100,"35' 5""",THE PLAYERS,2,9
670,670,,Steve Flesch,110,"35' 5""",BellSouth Class,1,8
671,670,,J.P. Hayes,78,"35' 5""",BellSouth Class,1,8
672,670,,Greg Chalmers,94,"35' 5""",MasterCard Colo,2,16
673,670,,Rocco Mediate,79,"35' 5""",Memorial Tourna,2,11
674,670,,Shaun Micheel,100,"35' 5""",Buick Open,3,12
675,670,,Robin Freeman,79,"35' 5""",Bell Canadian O,3,11
676,677,,Davis Love III,92,"35' 4""",Bay Hill Invita,2,6
677,677,,David Frost,90,"35' 4""",WORLDCOM,1,17
678,677,,Dennis Paulson,89,"35' 4""",Memorial Tourna,1,11
679,677,,Harrison Frazar,88,"35' 4""",Memorial Tourna,1,16
680,677,,Jay Don Blake,107,"35' 4""",Buick Classic,2,18
681,677,,Brett Quigley,93,"35' 4""",Buick Classic,4,15
682,677,,Jeff Gove,89,"35' 4""",FedEx St. Jude,1,15
683,677,,Steve Stricker,68,"35' 4""",Advil Western,3,17
684,677,,"David Berganio, Jr.",80,"35' 4""",Greater Milwauk,4,13
685,677,,J.J. Henry,112,"35' 4""",John Deere Clas,2,15
686,687,,Edward Fryatt,94,"35' 3""",THE PLAYERS,2,12
687,687,,Stephen Ames,89,"35' 3""",Buick Classic,2,17
688,687,,Edward Fryatt,94,"35' 3""",Advil Western,2,17
689,690,,David Duval,78,"35' 2""",Memorial Tourna,4,16
690,690,,Gene Sauers,33,"35' 2""",Greater Milwauk,3,10
691,690,,Hunter Mahan,2,"35' 2""",Texas Open,2,16
692,693,,John Huston,99,"35' 1""",Genuity,3,18
693,693,,Brett Quigley,93,"35' 1""",Compaq Classic,4,18
694,693,,Skip Kendall,103,"35' 1""",MasterCard Colo,1,17
695,693,,Scott Verplank,93,"35' 1""",WGC-NEC Invit'l,4,10
696,693,,Steve Flesch,110,"35' 1""",Michelob Champ,3,18
697,693,,Gene Sauers,33,"35' 1""",Buick Challenge,2,6
698,699,,Tim Petrovic,92,"35' 0""",Bob Hope Chrysl,4,13
699,699,,Tim Herron,102,"35' 0""",Air Canada,2,16
700,699,,Tom Kite,14,"35' 0""",Texas Open,2,16
701,699,,Michael Clark II,97,"35' 0""",Invensys Las V,5,13
702,703,,Bart Bryant,69,"34' 11""",Compaq Classic,1,13
703,703,,Tom Watson,14,"34' 11""",MasterCard Colo,2,13
704,703,,Jay Don Blake,107,"34' 11""",Advil Western,2,17
705,703,,J.J. Henry,112,"34' 11""",Advil Western,4,12
706,703,,Brian Gay,117,"34' 11""",Buick Open,4,15
707,703,,Lee Westwood,26,"34' 11""",WGC-NEC Invit'l,2,14
708,703,,Bob Tway,103,"34' 11""",Texas Open,1,14
709,710,,Michael Campbell,31,"34' 10""",THE PLAYERS,2,10
710,710,,Paul Gow,99,"34' 10""",Verizon,2,14
711,710,,James Driscoll,21,"34' 10""",B.C. Open,1,15
712,710,,"David Berganio, Jr.",80,"34' 10""",Buick Open,3,17
713,710,,Mike Heinen,49,"34' 10""",Buick Open,3,11
714,715,,Kelly Gibson,40,"34' 9""",Tucson Open,2,17
715,715,,Joey Sindelar,104,"34' 9""",MasterCard Colo,1,17
716,715,,Scott Hoch,71,"34' 9""",WGC-Am Express,1,16
717,715,,Paul Gow,99,"34' 9""",Texas Open,3,18
718,719,,Steve Flesch,110,"34' 8""",WORLDCOM,1,18
719,719,,Steve Lowery,98,"34' 8""",MasterCard Colo,3,18
720,719,,David Gossett,95,"34' 8""",Buick Classic,1,18
721,719,,Eduardo Romero,12,"34' 8""",WGC-Am Express,2,17
722,719,,Shaun Micheel,100,"34' 8""",Michelob Champ,4,18
723,719,,Paul Azinger,65,"34' 8""",Disney Classic,1,15
724,725,,Carlos Franco,107,"34' 7""",Sony Open,2,17
725,725,,Mark Brooks,97,"34' 7""",Tucson Open,1,16
726,725,,Loren Roberts,93,"34' 7""",MasterCard Colo,1,18
727,725,,Brian Gay,117,"34' 7""",Texas Open,1,17
728,729,,Donnie Hammond,60,"34' 6""",Tucson Open,4,17
729,729,,J.P. Hayes,78,"34' 6""",Compaq Classic,3,15
730,729,,Rich Beem,99,"34' 6""",WGC-NEC Invit'l,2,14
731,729,,Matt Kuchar,82,"34' 6""",Michelob Champ,1,16
732,733,,Brad Elder,76,"34' 5""",Buick Classic,3,12
733,733,,Steve Flesch,110,"34' 5""",Bell Canadian O,1,11
734,733,,Brian Gay,117,"34' 5""",SEI Pennsylvani,2,16
735,733,,Cameron Beckman,87,"34' 5""",Texas Open,2,13
736,733,,Pat Perez,89,"34' 5""",Texas Open,1,17
737,733,,Chip Sullivan,4,"34' 5""",Michelob Champ,3,12
738,733,,Stuart Appleby,97,"34' 5""",Buick Challenge,2,8
739,740,,Brian Henninger,66,"34' 4""",Verizon,3,14
740,740,,Michael Muehr,73,"34' 4""",Buick Classic,1,17
741,740,,Jess Daley,76,"34' 4""",B.C. Open,4,13
742,740,,Robert Damron,85,"34' 4""",Buick Open,3,16
743,740,,Spike McRoy,69,"34' 4""",Tampa Bay,2,14
744,740,,Geoff Ogilvy,90,"34' 4""",Michelob Champ,2,13
745,746,,Duffy Waldorf,90,"34' 3""",Bob Hope Chrysl,5,17
746,746,,Jay Delsing,18,"34' 3""",Tucson Open,2,16
747,746,,Jason Gore,2,"34' 3""",B.C. Open,2,17
748,746,,Bob May,91,"34' 3""",Buick Challenge,4,5
749,746,,Loren Roberts,93,"34' 3""",THE TOUR Champ,1,13
750,751,,Jason Hill,59,"34' 2""",FedEx St. Jude,4,18
751,751,,Skip Kendall,103,"34' 2""",Michelob Champ,2,17
752,751,,Tom Scherrer,98,"34' 2""",Disney Classic,1,18
753,751,,David Toms,106,"34' 2""",Buick Challenge,4,9
754,755,,Mike Heinen,49,"34' 1""",FedEx St. Jude,3,13
755,755,,Mike Sposa,111,"34' 1""",Buick Open,1,10
756,755,,Andrew Magee,91,"34' 1""",So. Farm Bureau,2,18
757,758,,Brenden Pappas,62,"34' 0""",Honda Classic,1,16
758,758,,Brian Gay,117,"34' 0""",Verizon,1,13
759,758,,Jerry Kelly,99,"34' 0""",Buick Classic,1,12
760,758,,Paul Claxton,83,"34' 0""",FedEx St. Jude,2,18
761,758,,Mathew Goggin,64,"34' 0""",Texas Open,2,10
762,763,,Brent Geiberger,95,"33' 11""",Buick Classic,3,16
763,763,,Lucas Glover,17,"33' 11""",Greater Milwauk,1,18
764,763,,Jonathan Kaye,83,"33' 11""",SEI Pennsylvani,4,10
765,763,,Paul Claxton,83,"33' 11""",Disney Classic,1,18
766,767,,Robert Allenby,96,"33' 10""",Memorial Tourna,2,17
767,767,,Lee Porter,91,"33' 10""",Texas Open,2,16
768,769,,Ed Fiori,14,"33' 9""",Bob Hope Chrysl,4,18
769,769,,Bob Burns,99,"33' 9""",WORLDCOM,4,14
770,769,,David Gossett,95,"33' 9""",Compaq Classic,2,14
771,769,,Ernie Els,68,"33' 9""",WGC-NEC Invit'l,2,17
772,773,,John Cook,85,"33' 8""",Memorial Tourna,4,16
773,773,,Craig Stadler,72,"33' 8""",Reno-Tahoe Open,1,15
774,773,,Pete Jordan,78,"33' 8""",Bell Canadian O,1,17
775,773,,Michael Clark II,97,"33' 8""",Invensys Las V,4,11
776,777,,Chad Campbell,111,"33' 7""",WORLDCOM,2,16
777,777,,Joel Edwards,101,"33' 7""",Memorial Tourna,4,16
778,777,,Michael Clark II,97,"33' 7""",Kemper Ins Open,2,13
779,777,,Sergio Garcia,79,"33' 7""",Buick Classic,3,10
780,777,,Chris Riley,104,"33' 7""",Canon Greater H,2,18
781,777,,Jeff Sluman,118,"33' 7""",Greater Milwauk,4,14
782,777,,Brad Faxon,93,"33' 7""",Buick Challenge,3,12
783,784,,K.J. Choi,93,"33' 6""",Buick Invitatio,3,18
784,784,,Michael Muehr,73,"33' 6""",Shell Houston,2,17
785,784,,Pat Perez,89,"33' 6""",WORLDCOM,1,18
786,784,,Bob Heintz,68,"33' 6""",Buick Classic,1,13
787,784,,Olin Browne,107,"33' 6""",Advil Western,1,17
788,784,,Jason Lee,2,"33' 6""",Advil Western,2,12
789,784,,"Jim Gallagher, Jr.",45,"33' 6""",Greater Milwauk,2,13
790,784,,Michael Clark II,97,"33' 6""",Greater Milwauk,3,12
791,784,,Brian Bateman,94,"33' 6""",Buick Challenge,1,1
792,793,,David Edwards,33,"33' 5""",Memorial Tourna,4,15
793,793,,Steve Flesch,110,"33' 5""",Buick Classic,3,15
794,793,,Esteban Toledo,106,"33' 5""",FedEx St. Jude,2,15
795,793,,J.J. Henry,112,"33' 5""",Buick Open,1,11
796,793,,Bob Tway,103,"33' 5""",Disney Classic,1,18
797,793,,Chris Riley,104,"33' 5""",THE TOUR Champ,4,6
798,799,,Steve Pate,64,"33' 4""",Tucson Open,2,17
799,799,,Joey Sindelar,104,"33' 4""",Canon Greater H,2,16
800,799,,Barry Cheesman,4,"33' 4""",B.C. Open,4,10
801,799,,Peter Lonard,93,"33' 4""",Air Canada,1,12
802,799,,Ernie Els,68,"33' 4""",WGC-Am Express,4,13
803,799,,Steve Flesch,110,"33' 4""",Michelob Champ,1,10
804,799,,Scott Verplank,93,"33' 4""",Buick Challenge,1,8
805,799,,Notah Begay III,76,"33' 4""",So. Farm Bureau,1,16
806,807,,Russ Cochran,68,"33' 3""",Tucson Open,1,17
807,807,,Woody Austin,102,"33' 3""",THE PLAYERS,1,13
808,807,,Tom Lehman,78,"33' 3""",Memorial Tourna,1,17
809,807,,Steve Allan,93,"33' 3""",Advil Western,1,10
810,807,,Tripp Isenhour,68,"33' 3""",Greater Milwauk,1,12
811,807,,Mathew Goggin,64,"33' 3""",Greater Milwauk,1,13
812,807,,Jim Furyk,88,"33' 3""",WGC-NEC Invit'l,2,10
813,807,,Peter Lonard,93,"33' 3""",Air Canada,3,13
814,807,,Hidemichi Tanaka,104,"33' 3""",Tampa Bay,2,18
815,807,,Jim McGovern,46,"33' 3""",Texas Open,1,17
816,817,,Fred Funk,106,"33' 2""",THE PLAYERS,1,14
817,817,,K.J. Choi,93,"33' 2""",Verizon,1,14
818,817,,Mark Calcavecchia,84,"33' 2""",Memorial Tourna,1,11
819,817,,Briny Baird,110,"33' 2""",Memorial Tourna,1,17
820,817,,Esteban Toledo,106,"33' 2""",Reno-Tahoe Open,2,15
821,817,,Mark O'Meara,68,"33' 2""",SEI Pennsylvani,2,16
822,817,,Robert Damron,85,"33' 2""",Disney Classic,4,12
823,824,,Jeff Maggert,83,"33' 1""",Verizon,2,17
824,824,,Brent Geiberger,95,"33' 1""",MasterCard Colo,3,14
825,824,,Robert Allenby,96,"33' 1""",Buick Classic,1,13
826,827,,Mark Calcavecchia,84,"33' 0""",Kemper Ins Open,3,17
827,828,,Jesper Parnevik,85,"32' 11""",MasterCard Colo,3,15
828,828,,Bart Bryant,69,"32' 11""",Greater Milwauk,2,18
829,828,,Kent Jones,105,"32' 11""",Buick Open,1,16
830,828,,Todd Doohan,4,"32' 11""",Bell Canadian O,2,12
831,828,,Craig Parry,69,"32' 11""",WGC-Am Express,1,16
832,828,,Guy Boros,28,"32' 11""",Texas Open,1,15
833,828,,Jesper Parnevik,85,"32' 11""",Disney Classic,1,18
834,828,,Dennis Paulson,89,"32' 11""",Buick Challenge,1,15
835,828,,Jerry Smith,91,"32' 11""",So. Farm Bureau,1,12
836,837,,Phil Mickelson,97,"32' 10""",WORLDCOM,2,13
837,837,,Joey Sindelar,104,"32' 10""",WORLDCOM,1,14
838,837,,Bob Heintz,68,"32' 10""",Air Canada,1,14
839,837,,Craig Barlow,62,"32' 10""",SEI Pennsylvani,1,13
840,837,,Pat Bates,94,"32' 10""",Michelob Champ,4,16
841,837,,Brett Quigley,93,"32' 10""",Buick Challenge,2,18
842,837,,Mike Sposa,111,"32' 10""",So. Farm Bureau,1,15
843,837,,Kenny Perry,98,"32' 10""",THE TOUR Champ,2,8
844,845,,Fulton Allem,64,"32' 9""",Phoenix Open,1,13
845,845,,Kenny Perry,98,"32' 9""",THE PLAYERS,3,13
846,845,,Brent Schwarzrock,28,"32' 9""",Compaq Classic,2,15
847,845,,Steve Jones,71,"32' 9""",Memorial Tourna,1,11
848,845,,Brett Wetterich,89,"32' 9""",Memorial Tourna,2,15
849,845,,Niclas Fasth,29,"32' 9""",WGC-NEC Invit'l,2,16
850,845,,Ricardo Gonzalez,13,"32' 9""",WGC-NEC Invit'l,4,17
851,845,,Billy Mayfair,99,"32' 9""",Michelob Champ,1,11
852,853,,Brad Faxon,93,"32' 8""",WORLDCOM,2,14
853,853,,John Cook,85,"32' 8""",Compaq Classic,4,16
854,853,,Lee Janzen,101,"32' 8""",Verizon,4,17
855,853,,Harrison Frazar,88,"32' 8""",Memorial Tourna,1,15
856,853,,Wayne Grady,12,"32' 8""",Kemper Ins Open,4,13
857,853,,Boo Weekley,57,"32' 8""",Kemper Ins Open,1,17
858,853,,Bryce Molder,65,"32' 8""",SEI Pennsylvani,3,11
859,853,,Niclas Fasth,29,"32' 8""",WGC-Am Express,4,18
860,853,,Kenny Perry,98,"32' 8""",Buick Challenge,3,2
861,853,,Brandt Jobe,94,"32' 8""",Buick Challenge,3,6
862,853,,Chris Riley,104,"32' 8""",Buick Challenge,2,5
863,853,,Ben Crane,91,"32' 8""",Buick Challenge,4,15
864,865,,Tim Herron,102,"32' 7""",Shell Houston,1,5
865,865,,Craig Perks,91,"32' 7""",Buick Classic,1,17
866,865,,Steve Allan,93,"32' 7""",Buick Classic,2,14
867,865,,Adam Scott,32,"32' 7""",Buick Classic,2,14
868,865,,Paul Stankowski,100,"32' 7""",Bell Canadian O,2,17
869,865,,Steve Lowery,98,"32' 7""",Invensys Las V,4,12
870,865,,Vijay Singh,102,"32' 7""",Buick Challenge,4,1
871,872,,Jay Williamson,91,"32' 6""",Tucson Open,1,18
872,872,,Greg Chalmers,94,"32' 6""",Shell Houston,4,13
873,872,,Billy Andrade,100,"32' 6""",Compaq Classic,1,13
874,872,,Dan Forsman,83,"32' 6""",Compaq Classic,3,16
875,872,,Brian Gay,117,"32' 6""",Kemper Ins Open,1,13
876,872,,Neal Lancaster,101,"32' 6""",Greater Milwauk,1,16
877,872,,Pat Bates,94,"32' 6""",Buick Open,4,12
878,872,,John Rollins,124,"32' 6""",Buick Challenge,3,8
879,880,,J.L. Lewis,98,"32' 5""",Phoenix Open,1,13
880,880,,Charles Howell III,118,"32' 5""",THE PLAYERS,2,10
881,880,,Rich Beem,99,"32' 5""",BellSouth Class,1,10
882,880,,John Huston,99,"32' 5""",MasterCard Colo,1,17
883,880,,Phil Tataurangi,88,"32' 5""",Kemper Ins Open,4,16
884,880,,David Morland IV,58,"32' 5""",Canon Greater H,2,16
885,880,,"Jim Gallagher, Jr.",45,"32' 5""",B.C. Open,3,13
886,887,,Greg Chalmers,94,"32' 4""",Phoenix Open,1,17
887,887,,Tom Scherrer,98,"32' 4""",Verizon,3,16
888,887,,David Toms,106,"32' 4""",MasterCard Colo,4,16
889,887,,Kenny Perry,98,"32' 4""",Memorial Tourna,1,17
890,887,,Kelly Gibson,40,"32' 4""",Kemper Ins Open,1,14
891,887,,Olin Browne,107,"32' 4""",Buick Classic,1,14
892,887,,Sean Murphy,6,"32' 4""",FedEx St. Jude,3,18
893,887,,Bradley Hughes,60,"32' 4""",B.C. Open,2,13
894,887,,Chris Smith,103,"32' 4""",Texas Open,1,17
895,887,,Brian Gay,117,"32' 4""",Disney Classic,1,18
896,887,,Garrett Willis,80,"32' 4""",So. Farm Bureau,1,16
897,898,,Joel Edwards,101,"32' 3""",Sony Open,2,16
898,898,,Carlos Franco,107,"32' 3""",Phoenix Open,1,15
899,898,,Mike Sposa,111,"32' 3""",Tucson Open,3,16
900,898,,Hidemichi Tanaka,104,"32' 3""",Bell Canadian O,2,16
901,898,,Davis Love III,92,"32' 3""",Buick Challenge,1,13
902,898,,Pat Bates,94,"32' 3""",Buick Challenge,4,7
903,898,,Willie Wood,44,"32' 3""",So. Farm Bureau,2,15
904,898,,Phil Mickelson,97,"32' 3""",THE TOUR Champ,3,8
905,906,,Chris DiMarco,111,"32' 2""",Bob Hope Chrysl,5,17
906,906,,Steve Pate,64,"32' 2""",Tucson Open,3,16
907,906,,Edward Fryatt,94,"32' 2""",Genuity,3,18
908,906,,Bart Bryant,69,"32' 2""",Compaq Classic,1,14
909,906,,Mark Brooks,97,"32' 2""",MasterCard Colo,4,17
910,906,,Jeff Gallagher,37,"32' 2""",Kemper Ins Open,1,17
911,906,,Brian Gay,117,"32' 2""",Kemper Ins Open,4,17
912,906,,Bradley Hughes,60,"32' 2""",FedEx St. Jude,1,18
913,906,,Blaine McCallister,75,"32' 2""",Air Canada,3,16
914,906,,Brent Geiberger,95,"32' 2""",Invensys Las V,5,10
915,906,,Olin Browne,107,"32' 2""",Buick Challenge,2,8
916,917,,Greg Chalmers,94,"32' 1""",Phoenix Open,1,16
917,917,,Greg Chalmers,94,"32' 1""",Greater Milwauk,3,13
918,917,,Kelly Gibson,40,"32' 1""",John Deere Clas,2,15
919,917,,Justin Leonard,97,"32' 1""",WGC-NEC Invit'l,4,17
920,917,,Franklin Langham,72,"32' 1""",Buick Challenge,2,4
921,917,,John Senden,96,"32' 1""",So. Farm Bureau,1,12
922,923,,Paul Gow,99,"32' 0""",Honda Classic,2,18
923,923,,John Riegger,88,"32' 0""",Advil Western,4,10
924,923,,Mike Heinen,49,"32' 0""",Air Canada,2,15
925,923,,David Ogrin,6,"32' 0""",SEI Pennsylvani,1,13
926,923,,Tripp Isenhour,68,"32' 0""",Texas Open,4,17
927,923,,Per-Ulrik Johansson,87,"32' 0""",Disney Classic,3,16
928,929,,David Gossett,95,"31' 11""",THE PLAYERS,2,16
929,929,,Jesper Parnevik,85,"31' 11""",BellSouth Class,1,13
930,929,,Brett Wetterich,89,"31' 11""",BellSouth Class,4,9
931,929,,Bob Burns,99,"31' 11""",WORLDCOM,3,18
932,929,,Andrew Magee,91,"31' 11""",Canon Greater H,2,18
933,929,,Edward Fryatt,94,"31' 11""",Reno-Tahoe Open,1,15
934,935,,Jeff Maggert,83,"31' 10""",MasterCard Colo,1,14
935,935,,Grant Waite,98,"31' 10""",Air Canada,3,15
936,935,,Robert Allenby,96,"31' 10""",Air Canada,3,18
937,935,,J.J. Henry,112,"31' 10""",Air Canada,4,18
938,935,,Bobby Clampett,2,"31' 10""",Michelob Champ,1,10
939,935,,Jerry Smith,91,"31' 10""",Invensys Las V,2,18
940,941,,Tim Herron,102,"31' 9""",WORLDCOM,1,14
941,941,,Matt Peterson,80,"31' 9""",FedEx St. Jude,4,15
942,941,,Mathew Goggin,64,"31' 9""",B.C. Open,2,16
943,941,,Tim Petrovic,92,"31' 9""",Buick Open,1,13
944,941,,Peter Lonard,93,"31' 9""",WGC-NEC Invit'l,3,15
945,941,,David Frost,90,"31' 9""",Tampa Bay,1,11
946,941,,Esteban Toledo,106,"31' 9""",Texas Open,2,17
947,941,,Ben Crane,91,"31' 9""",Invensys Las V,2,14
948,941,,Jonathan Byrd,96,"31' 9""",Invensys Las V,4,17
949,941,,Rod Pampling,98,"31' 9""",Disney Classic,1,12
950,941,,Curtis Strange,26,"31' 9""",Buick Challenge,1,3
951,952,,Craig Parry,69,"31' 8""",THE PLAYERS,4,17
952,952,,Neal Lancaster,101,"31' 8""",THE PLAYERS,2,17
953,952,,Kenny Perry,98,"31' 8""",BellSouth Class,4,9
954,952,,Chris Smith,103,"31' 8""",WORLDCOM,3,18
955,952,,Phil Mickelson,97,"31' 8""",Compaq Classic,1,16
956,952,,Cameron Beckman,87,"31' 8""",John Deere Clas,3,12
957,952,,Joe Ogilvie,50,"31' 8""",Bell Canadian O,1,13
958,952,,Michael Clark II,97,"31' 8""",Disney Classic,1,14
959,952,,J.J. Henry,112,"31' 8""",Buick Challenge,2,10
960,961,,Mike Sposa,111,"31' 7""",Compaq Classic,2,16
961,961,,Dan Forsman,83,"31' 7""",Buick Open,1,13
962,961,,Mark Calcavecchia,84,"31' 7""",WGC-NEC Invit'l,3,15
963,961,,Geoff Ogilvy,90,"31' 7""",Reno-Tahoe Open,4,16
964,961,,Per-Ulrik Johansson,87,"31' 7""",Michelob Champ,1,11
965,961,,Glen Hnatiuk,95,"31' 7""",Disney Classic,3,14
966,961,,Billy Andrade,100,"31' 7""",Buick Challenge,3,15
967,968,,Chris Smith,103,"31' 6""",Advil Western,1,15
968,968,,Brian Henninger,66,"31' 6""",John Deere Clas,3,16
969,968,,Scott McCarron,106,"31' 6""",WGC-NEC Invit'l,3,18
970,968,,David Peoples,105,"31' 6""",Reno-Tahoe Open,2,15
971,968,,Soren Hansen,16,"31' 6""",WGC-Am Express,2,14
972,968,,John Daly,62,"31' 6""",Tampa Bay,1,16
973,974,,Olin Browne,107,"31' 5""",MasterCard Colo,4,17
974,974,,David Peoples,105,"31' 5""",Memorial Tourna,1,15
975,974,,Dennis Paulson,89,"31' 5""",Buick Open,2,15
976,974,,Len Mattiace,106,"31' 5""",WGC-NEC Invit'l,4,16
977,974,,Peter Lonard,93,"31' 5""",WGC-NEC Invit'l,4,14
978,974,,Garrett Willis,80,"31' 5""",Texas Open,2,14
979,974,,Chris Smith,103,"31' 5""",Buick Challenge,3,17
980,981,,Fred Funk,106,"31' 4""",Bob Hope Chrysl,5,15
981,981,,Brandel Chamblee,85,"31' 4""",Phoenix Open,3,17
982,981,,Shigeki Maruyama,87,"31' 4""",Tucson Open,1,16
983,981,,Fred Funk,106,"31' 4""",Shell Houston,2,13
984,981,,Charles Howell III,118,"31' 4""",Compaq Classic,3,16
985,981,,Richard Zokol,53,"31' 4""",Buick Classic,4,18
986,981,,Spike McRoy,69,"31' 4""",Canon Greater H,2,13
987,981,,Jerry Smith,91,"31' 4""",Greater Milwauk,1,17
988,981,,Matt Kuchar,82,"31' 4""",Air Canada,1,16
989,981,,Derek Gillespie,6,"31' 4""",Bell Canadian O,2,15
990,981,,Fulton Allem,64,"31' 4""",Michelob Champ,1,10
991,981,,David Duval,78,"31' 4""",Michelob Champ,4,11
992,981,,Glen Day,107,"31' 4""",Invensys Las V,4,18
993,981,,Olin Browne,107,"31' 4""",Buick Challenge,4,4
994,981,,Notah Begay III,76,"31' 4""",Buick Challenge,4,9
995,996,,Joel Edwards,101,"31' 3""",Canon Greater H,1,18
996,996,,Steve Elkington,82,"31' 3""",Advil Western,4,10
997,996,,Kelly Gibson,40,"31' 3""",B.C. Open,1,15
998,996,,Jim Carter,98,"31' 3""",Reno-Tahoe Open,1,14
